TDRS 3                  
1 19548U 88091B   26243.34352375 -.00000292  00000+0  00000+0 0  9994
2 19548  12.5466 340.4922 0037897 352.7069  80.9612  1.00280007126141
FLTSATCOM 8 (USA 46)    
1 20253U 89077A   26239.70847848 -.00000363  00000+0  00000+0 0  9992
2 20253  12.4025 350.7231 0001502 156.9881 208.6452  1.00260990261288
TDRS 5                  
1 21639U 91054B   26243.55833194  .00000090  00000+0  00000+0 0  9992
2 21639  14.0624 353.2075 0008919 247.7909 132.0936  1.00274534128472
TDRS 6                  
1 22314U 93003B   26243.83883403 -.00000290  00000+0  00000+0 0  9991
2 22314  14.1851 356.4877 0009122 194.8135  44.6523  1.00280160123164
UFO 2 (USA 95)          
1 22787U 93056A   26242.96834340  .00000131  00000+0  00000+0 0  9995
2 22787  11.9220   3.1289 0001260 248.6203 104.6354  1.00272297119295
UFO 4 (USA 108)         
1 23467U 95003A   26243.57391659 -.00000016  00000+0  00000+0 0  9997
2 23467   9.6870  12.8326 0002668 146.8253 199.0190  1.00275542115706
TDRS 7                  
1 23613U 95035B   26243.76438878 -.00000234  00000+0  00000+0 0  9993
2 23613  13.3060 347.6615 0011864  97.7449 258.8248  1.00277165114004
USA 115 (MILSTAR-1 2)   
1 23712U 95060A   26243.70889823 -.00000197  00000+0  00000+0 0  9993
2 23712  14.0997   3.1707 0006532 151.1267 350.8372  1.00272023 33645
INMARSAT 3-F1           
1 23839U 96020A   26243.71232497  .00000043  00000+0  00000+0 0  9999
2 23839  10.7555  45.9158 0006248 138.0676 239.1587  0.99999011111019
INMARSAT 3-F2           
1 24307U 96053A   26243.97282027  .00000002  00000+0  00000+0 0  9993
2 24307  10.0242  53.1437 0005766 102.6897 246.1663  0.99975243109676
INMARSAT 3-F3           
1 24674U 96070A   26243.81144899 -.00000256  00000+0  00000+0 0  9998
2 24674  10.4784  48.9033 0005187 137.8981  52.4272  0.99997206108668
USA 134                 
1 25019U 97065A   26243.92111362 -.00000060  00000+0  00000+0 0  9991
2 25019  12.8732  21.1345 0002111 269.3543 269.1461  1.00271434 33710
INMARSAT 3-F5           
1 25153U 98006B   26243.85672190 -.00000287  00000+0  00000+0 0  9990
2 25153   9.8569  52.4781 0004649 112.9796  69.0426  1.00271427104657
ABS-6                   
1 25924U 99053A   26243.81017147 -.00000116  00000+0  00000+0 0  9991
2 25924   0.0570 266.3878 0002868 198.5046 325.7005  1.00272586 98597
UFO 10 (USA 146)        
1 25967U 99063A   26243.74213844 -.00000183  00000+0  00000+0 0  9997
2 25967   9.8988  26.7972 0003499 182.0212  15.4651  1.00270940 98100
ASIASTAR                
1 26107U 00016A   26243.92197370 -.00000330  00000+0  00000+0 0  9993
2 26107   9.3010  57.3174 0004113 105.6878 253.9938  1.00274801 96672
USA 149 (DSP 20)        
1 26356U 00024A   26238.58131876  .00000099  00000+0  00000+0 0  9994
2 26356  13.2232  11.3345 0000879 209.9999 157.4666  1.00277252 33620
TDRS 8                  
1 26388U 00034A   26243.88169626 -.00000191  00000+0  00000+0 0  9997
2 26388  12.8015  30.6641 0002133  79.3398 272.2969  1.00273592 95936
NSS-11                  
1 26554U 00059A   26243.85287584  .00000029  00000+0  00000+0 0  9999
2 26554   2.3143  80.4153 0003044  89.4037 293.2546  1.00272473 42058
USA 153                 
1 26575U 00065A   26243.78725321 -.00000319  00000+0  00000+0 0  9990
2 26575  11.7531  34.7716 0001811 124.6841 238.4101  1.00272789 33696
AMC-6                   
1 26580U 00067A   26243.71995168  .00000092  00000+0  00000+0 0  9996
2 26580   0.3386  83.8614 0004153  82.2103 297.9696  1.00272903 94658
USA 157 (MILSTAR-2 2)   
1 26715U 01009A   26243.53377924  .00000115  00000+0  00000+0 0  9993
2 26715  11.6250  19.2730 0042712 179.5190 183.0274  1.00271218 33708
INTELSAT 902 (IS-902)   
1 26900U 01039A   26243.87939596 -.00000279  00000+0  00000+0 0  9990
2 26900   6.3027  70.8269 0004187  88.8383  86.8624  1.00270208 91450
USA 164 (MILSTAR-2 3)   
1 27168U 02001A   26243.60780451  .00000103  00000+0  00000+0 0  9997
2 27168  11.2696  21.4260 0097914   9.9258 186.1998  1.00274422 33717
INTELSAT 904 (IS-904)   
1 27380U 02007A   26243.88611418 -.00000221  00000+0  00000+0 0  9997
2 27380   7.1021  68.2428 0003153  89.7115 109.6248  1.00273286 52529
DIRECTV 5 (TEMPO 1)     
1 27426U 02023A   26243.58232440 -.00000053  00000+0  00000+0 0  9990
2 27426   5.0631  74.3332 0003428 100.4642 264.5108  1.00271898 88888
INTELSAT 905 (IS-905)   
1 27438U 02027A   26243.57703770  .00000098  00000+0  00000+0 0  9993
2 27438   6.9358  68.8576 0003151 113.8759 227.5735  1.00272416 52114
GALAXY 3C (G-3C)        
1 27445U 02030A   26243.68522293 -.00000149  00000+0  00000+0 0  9994
2 27445   3.9263  77.0039 0001484  48.1014   6.5886  1.00271433 47250
INTELSAT 906 (IS-906)   
1 27513U 02041A   26243.61681788  .00000017  00000+0  00000+0 0  9993
2 27513   5.9885  71.9608 0002521  92.5047 101.5354  1.00272813 87786
NIMIQ 2                 
1 27632U 02062A   26243.53459005 -.00000064  00000+0  00000+0 0  9997
2 27632   9.6147  56.0736 0005600 106.3412 260.5611  1.00271217 44947
USA 167                 
1 27691U 03008A   26243.50874406  .00000010  00000+0  00000+0 0  9996
2 27691  11.1067  42.7073 0002740 287.0497  70.9572  1.00273989  7529
USA 169 (MILSTAR-2 4)   
1 27711U 03012A   26243.70556494 -.00000192  00000+0  00000+0 0  9992
2 27711  12.4617  29.2056 0096837  11.3733 345.4599  1.00270251 33706
ASIASAT 4               
1 27718U 03014A   26243.84724249 -.00000218  00000+0  00000+0 0  9990
2 27718   4.8918  74.7607 0002692  89.0932 268.7206  1.00270476 46051
HELLAS-SAT 2            
1 27811U 03020A   26243.81604235 -.00000080  00000+0  00000+0 0  9997
2 27811   7.5358  66.9481 0007019 130.3828  66.4587  1.00272383 43600
THURAYA-2               
1 27825U 03026A   26243.54159088  .00000130  00000+0  00000+0 0  9994
2 27825   8.9540  31.6000 0001126  46.9471 140.1573  1.00273558 85109
OPTUS C1                
1 27831U 03028B   26243.77756218 -.00000148  00000+0  00000+0 0  9996
2 27831   7.0718  68.4608 0005542  95.5810 251.5137  1.00269388 53810
USA 170                 
1 27875U 03040A   26243.60901785  .00000131  00000+0  00000+0 0  9992
2 27875  10.6567  47.2066 0001278 111.1845  64.9444  1.00277562 33759
GALAXY 13 (HORIZONS-1)  
1 27954U 03044A   26243.71700499  .00000136  00000+0  00000+0 0  9990
2 27954   1.6086  82.8055 0002054  79.5487 285.6684  1.00274627 47334
YAMAL 202               
1 28089U 03053A   26243.85036250 -.00000076  00000+0  00000+0 0  9996
2 28089   6.5276  69.9942 0004004  97.8390 281.9190  1.00271859 83462
UFO 11 (USA 174)        
1 28117U 03057A   26243.93308615 -.00000099  00000+0  00000+0 0  9993
2 28117   9.0028  33.4123 0003528 142.2217 215.8405  1.00271577 83201
USA 176 (DSP 22)        
1 28158U 04004A   26243.84247935 -.00000291  00000+0  00000+0 0  9992
2 28158  12.1633  25.4914 0002105 291.1864 277.5450  1.00268372 33696
ABS-4 (MOBISAT-1)       
1 28184U 04007A   26243.61621122  .00000043  00000+0  00000+0 0  9997
2 28184   6.2265  71.0568 0005110  91.8271  99.7047  1.00271143 53090
INTELSAT 10-02          
1 28358U 04022A   26243.88910266 -.00000007  00000+0  00000+0 0  9997
2 28358   0.0539 268.4246 0000337 336.1209  54.6023  1.00271863 81315
ANIK F2                 
1 28378U 04027A   26243.58215106 -.00000046  00000+0  00000+0 0  9995
2 28378   3.4755  78.4371 0003110  75.4489 284.3476  1.00271680 42012
AMC-15                  
1 28446U 04041A   26243.86838925 -.00000085  00000+0  00000+0 0  9991
2 28446   0.0642 285.7387 0002086 230.0442  31.8235  1.00270276 80060
NSS-10                  
1 28526U 05003A   26243.88182264 -.00000248  00000+0  00000+0 0  9990
2 28526   6.6336  69.5029 0003027  97.8124  92.7594  1.00271181 53918
INMARSAT 4-F1           
1 28628U 05009A   26243.78198220  .00000037  00000+0  00000+0 0  9992
2 28628   5.2718  42.7975 0002776 128.7406 268.0497  1.00271914 78438
DIRECTV 8               
1 28659U 05019A   26243.59853310  .00000005  00000+0  00000+0 0  9999
2 28659   0.0155 131.7852 0003170  40.1937 264.2246  1.00272727 77823
GALAXY 28 (G-28)        
1 28702U 05022A   26243.38492502 -.00000195  00000+0  00000+0 0  9992
2 28702   3.4849  77.9589 0002256  88.1988 284.8970  1.00277579 52734
THAICOM 4               
1 28786U 05028A   26243.89350145 -.00000359  00000+0  00000+0 0  9994
2 28786   0.4334  84.8892 0000755  67.5543 268.8081  1.00271538 53001
ANIK F1R                
1 28868U 05036A   26243.58293106 -.00000071  00000+0  00000+0 0  9994
2 28868   4.4985  75.6023 0003103  57.1448 309.5816  1.00271886 47212
SYRACUSE 3A             
1 28885U 05041B   26243.90461331  .00000133  00000+0  00000+0 0  9990
2 28885   4.8286  74.8689 0002357  84.2087 193.2968  1.00271252 76505
INMARSAT 4-F2           
1 28899U 05044A   26243.70391826 -.00000256  00000+0  00000+0 0  9994
2 28899   5.1923  43.7089 0002520 121.3569 211.7339  1.00271348 76279
METEOSAT-9 (MSG-2)      
1 28912U 05049B   26243.61317787  .00000129  00000+0  00000+0 0  9997
2 28912   9.5270  53.3969 0001618 352.2137 200.6708  1.00268319  7753
EUTELSAT 174A           
1 28924U 05052A   26243.85244251  .00000012  00000+0  00000+0 0  9996
2 28924   4.4026  75.5494 0006069  84.6324 300.7237  1.00270032 53099
ECHOSTAR 10             
1 28935U 06003A   26243.58232440 -.00000052  00000+0  00000+0 0  9997
2 28935   0.0683 287.0359 0001771 205.7349 306.4229  1.00270539 75214
SPAINSAT                
1 28945U 06007A   26243.14137045 -.00000213  00000+0  00000+0 0  9998
2 28945   0.7495  85.2331 0004811  77.4892 197.3046  1.00272636 74961
JCSAT-5A                
1 29045U 06010A   26243.88794929 -.00000324  00000+0  00000+0 0  9998
2 29045   1.2965  83.2327 0001401  67.1750 281.3727  1.00269396 74526
ASTRA 1KR               
1 29055U 06012A   26243.82176237  .00000123  00000+0  00000+0 0  9997
2 29055   0.6616  82.8449 0003462  82.5694 129.4345  1.00273959 46459
GALAXY 16 (G-16)        
1 29236U 06023A   26243.86968925 -.00000123  00000+0  00000+0 0  9998
2 29236   0.0172 188.5599 0002830 339.4108  26.1653  1.00271316 73734
EUTELSAT 33F            
1 29270U 06032A   26243.82453572  .00000159  00000+0  00000+0 0  9997
2 29270   1.8494  81.3035 0003345  83.7606 144.8869  1.00274894 48066
JCSAT-3A                
1 29272U 06033A   26243.88794929 -.00000341  00000+0  00000+0 0  9994
2 29272   0.0488 287.3663 0002705 244.3895 255.9712  1.00271369 48493
KOREASAT 5 (MUGUNGWHA 5)
1 29349U 06034A   26243.94961422 -.00000354  00000+0  00000+0 0  9995
2 29349   1.9727  81.9456 0002280 136.8053 216.3068  1.00271482 42070
DIRECTV 9S              
1 29494U 06043A   26243.86925591 -.00000110  00000+0  00000+0 0  9994
2 29494   2.6084  79.9253 0003853  73.1529  38.7067  1.00271747 52143
OPTUS D1                
1 29495U 06043B   26243.84810916 -.00000180  00000+0  00000+0 0  9994
2 29495   3.2220  78.6682 0003677  81.7488 276.9097  1.00272663 72877
BADR-4                  
1 29526U 06051A   26243.82479572  .00000159  00000+0  00000+0 0  9990
2 29526   2.1925  80.2076 0005013  83.0655 148.1348  1.00270592 52028
WILDBLUE-1              
1 29643U 06054A   26243.90799608 -.00000053  00000+0  00000+0 0  9991
2 29643   2.9912  79.4891 0004834  90.2873 231.8206  0.99173240 54540
SKYNET 5A               
1 30794U 07007B   26243.91240241 -.00000268  00000+0  00000+0 0  9992
2 30794   5.4875  72.7818 0003338  91.7308 239.2593  1.00272992 71454
ANIK F3                 
1 31102U 07009A   26243.58067772  .00000003  00000+0  00000+0 0  9993
2 31102   1.3849  82.8475 0002702  78.5619 268.6897  1.00272109 47318
ASTRA 1L                
1 31306U 07016A   26243.88442264 -.00000181  00000+0  00000+0 0  9991
2 31306   1.5095  80.8347 0005062  80.2344 112.8746  1.00270360 45747
GALAXY 17 (G-17)        
1 31307U 07016B   26243.87246259 -.00000203  00000+0  00000+0 0  9992
2 31307   3.1550  78.8927 0002858 105.4426  24.7985  1.00272168 70566
INTELSAT 11 (IS-11)     
1 32253U 07044B   26243.85059650 -.00000274  00000+0  00000+0 0  9997
2 32253   3.7548  77.6961 0007043 122.7676 238.7530  0.99052347 69209
WGS F1 (USA 195)        
1 32258U 07046A   26243.45319049 -.00000263  00000+0  00000+0 0  9999
2 32258   0.0039 188.6464 0000653 347.3951 284.2482  1.00271330 53091
SKYNET 5B               
1 32294U 07056B   26243.75167181  .00000144  00000+0  00000+0 0  9998
2 32294   5.4380  72.5668 0003551  91.0079 112.0395  1.00270666 68953
ASTRA 4A                
1 32299U 07057A   26243.89022933  .00000036  00000+0  00000+0 0  9994
2 32299   0.0597 285.1131 0002396 239.7925 140.4652  1.00272621 52400
HORIZONS-2              
1 32388U 07063B   26243.87471594 -.00000250  00000+0  00000+0 0  9998
2 32388   2.7895  79.6394 0001858  70.8017  70.7334  1.00271742 68574
THURAYA-3               
1 32404U 08001A   26243.90192939  .00000013  00000+0  00000+0 0  9993
2 32404   6.1154  35.8148 0002513 152.2289 180.4472  1.00272754 68245
THOR 5                  
1 32487U 08006A   26243.88918933 -.00000005  00000+0  00000+0 0  9998
2 32487   0.0536 259.3084 0002798 280.9603 119.1674  1.00273027 68077
AMC-14                  
1 32708U 08011A   26243.79836582 -.00000340  00000+0  00000+0 0  9991
2 32708  24.0976  19.6056 0036026   3.5031 348.3156  1.00445346 68928
DIRECTV 11              
1 32729U 08013A   26243.86968925 -.00000122  00000+0  00000+0 0  9999
2 32729   0.0193 322.3521 0000209 134.5043  97.1002  1.00271286 46351
ICO G1                  
1 32763U 08016A   26242.87300964 -.00000167  00000+0  00000+0 0  9992
2 32763   5.5421  35.9069 0002060 121.6612  42.9333  1.00272628 67295
VINASAT-1               
1 32767U 08018A   26243.88794929 -.00000325  00000+0  00000+0 0  9994
2 32767   0.0492 295.2478 0002005 249.7331 246.7026  1.00271270 67342
STAR ONE C2             
1 32768U 08018B   26243.49330062 -.00000273  00000+0  00000+0 0  9998
2 32768   1.4248  81.6260 0002438  78.6784 291.9686  1.00272746 67415
AMOS-3                  
1 32794U 08022A   26243.93308615 -.00000113  00000+0  00000+0 0  9993
2 32794   0.6427  85.0182 0002357  43.0944 265.9027  1.00271471 83095
GALAXY 18 (G-18)        
1 32951U 08024A   26243.50857073  .00000028  00000+0  00000+0 0  9994
2 32951   0.0289 250.0456 0003288 284.8136 224.9227  1.00273167 46607
ZHONGXING-9             
1 33051U 08028A   26243.97888972 -.00000246  00000+0  00000+0 0  9996
2 33051   0.9543  84.2723 0004872  96.3801 244.2859  1.00273483 66799
SKYNET 5C               
1 33055U 08030A   26243.88580932 -.00000136  00000+0  00000+0 0  9996
2 33055   3.9753  76.0914 0004802  97.6131 107.4747  1.00271279 66712
TURKSAT 3A              
1 33056U 08030B   26243.75505182  .00000150  00000+0  00000+0 0  9992
2 33056   0.0433  84.1119 0004622  63.6235 146.0107  1.00273417 53116
ECHOSTAR 11             
1 33207U 08035A   26243.58241106 -.00000054  00000+0  00000+0 0  9993
2 33207   1.1924  83.1987 0002425  86.8289 269.6088  1.00271255 51967
SUPERBIRD-C2            
1 33274U 08038A   26243.70235825 -.00000303  00000+0  00000+0 0  9992
2 33274   2.5482  80.2624 0005950  65.1611 223.3081  1.00269289106488
INMARSAT 4-F3           
1 33278U 08039A   26243.86986259 -.00000136  00000+0  00000+0 0  9992
2 33278   4.3652  31.7152 0003127 157.3566   6.1318  1.00272349 47301
NIMIQ 4                 
1 33373U 08044A   26243.87306927 -.00000217  00000+0  00000+0 0  9993
2 33373   0.0218 100.3526 0001566  51.2577  60.7420  1.00270815 65749
GALAXY 19 (G-19)        
1 33376U 08045A   26243.90600183 -.00000136  00000+0  00000+0 0  9992
2 33376   0.0553 262.5648 0002561 269.3473  37.3286  1.00271669 65662
ASTRA 1M                
1 33436U 08057A   26243.82184904  .00000124  00000+0  00000+0 0  9997
2 33436   0.4838  82.7611 0003905  82.1006 130.3847  1.00271952 46499
EUTELSAT HOTBIRD 13C    
1 33459U 08065A   26243.87930929 -.00000279  00000+0  00000+0 0  9994
2 33459   3.1375  78.2371 0003609  92.0963  75.9810  1.00271143 48102
EXPRESS-AM44            
1 33595U 09007A   26243.95834963 -.00000085  00000+0  00000+0 0  9997
2 33595   3.6503  77.4264 0003739  81.3053 155.4136  1.00272251 53043
NSS-9                   
1 33749U 09008A   26243.85426252  .00000076  00000+0  00000+0 0  9995
2 33749   1.4495  81.7901 0002107  73.2777 315.5845  1.00273202 64288
TELSTAR 11N             
1 34111U 09009A   26243.38284501 -.00000247  00000+0  00000+0 0  9998
2 34111   0.0475 277.6520 0002522 240.4999 281.6980  1.00272246 46991
WGS F2 (USA 204)        
1 34713U 09017A   26243.54427756  .00000000  00000+0  00000+0 0  9990
2 34713   0.0218 135.2411 0000657  51.7550  46.1412  1.00271311 46373
SES-7 (PROTOSTAR 2)     
1 34941U 09027A   26243.94975311 -.00000341  00000+0  00000+0 0  9992
2 34941   0.0532  79.5595 0000872 142.7725 207.9455  1.00269212 63383
MEASAT-3A               
1 35362U 09032A   26243.85615459 -.00000107  00000+0  00000+0 0  9990
2 35362   0.0311 310.4326 0002086 216.5710 281.2729  1.00271578  8788
EWS-G3 (GOES 14)        
1 35491U 09033A   26243.92753120 -.00000211  00000+0  00000+0 0  9996
2 35491   1.8778  82.0095 0002210  85.1709 239.9497  1.00074542  7344
FM-5                    
1 35493U 09034A   26243.90044669 -.00000197  00000+0  00000+0 0  9991
2 35493   0.0545 275.8366 0000780 142.8857 159.3606  1.00270432 47401
TERRESTAR-1             
1 35496U 09035A   26243.58114161 -.00000051  00000+0  00000+0 0  9993
2 35496   5.2179  48.6908 0002544  92.1959 297.0751  1.00269504 62891
ASIASAT 5               
1 35696U 09042A   26243.98044973 -.00000304  00000+0  00000+0 0  9991
2 35696   0.0518 261.6388 0001652 238.4458 293.5410  1.00273305 62471
JCSAT-12 (JCSAT-RA)     
1 35755U 09044A   26243.88794929 -.00000324  00000+0  00000+0 0  9993
2 35755   0.0536 282.4527 0001443 288.9293 220.4007  1.00271313 62364
OPTUS D3                
1 35756U 09044B   26243.85059650 -.00000143  00000+0  00000+0 0  9995
2 35756   0.8565 268.1086 0004167 256.6086 277.6699  1.00271147 62326
NIMIQ 5                 
1 35873U 09050A   26243.87488927 -.00000253  00000+0  00000+0 0  9999
2 35873   0.0454 278.4947 0002810 239.9411  63.8832  1.00272195 62108
AMAZONAS 2              
1 35942U 09054A   26243.92552502 -.00000256  00000+0  00000+0 0  9990
2 35942   2.0035  81.9978 0003377  77.0018  82.2964  1.00272513 61942
COMSATBW-1              
1 35943U 09054B   26243.90175605  .00000028  00000+0  00000+0 0  9990
2 35943   0.0347 165.8495 0002948   5.8585 195.9984  1.00271693 62060
NSS-12                  
1 36032U 09058A   26243.90054271  .00000075  00000+0  00000+0 0  9991
2 36032   0.0516 294.4539 0003568 191.0840 235.7440  1.00272926 61673
THOR 6                  
1 36033U 09058B   26243.88910266 -.00000006  00000+0  00000+0 0  9999
2 36033   0.0097 137.9127 0002424  55.8288 105.5509  1.00271982 61766
INTELSAT 14 (IS-14)     
1 36097U 09064A   26243.88034929 -.00000270  00000+0  00000+0 0  9992
2 36097   0.1025  85.4272 0002726  92.6640  73.9008  1.00271614 61362
EUTELSAT 36B            
1 36101U 09065A   26243.90461331  .00000116  00000+0  00000+0 0  9991
2 36101   0.6744  81.2420 0005779  79.5288 195.4578  1.00271082 61465
INTELSAT 15 (IS-15)     
1 36106U 09067A   26243.93308615  .00000000  00000+0  00000+0 0  9998
2 36106   0.0213 122.2918 0002328  51.8245 227.0470  1.00269934 41987
WGS F3 (USA 211)        
1 36108U 09068A   26243.59670447  .00000025  00000+0  00000+0 0  9995
2 36108   0.3180  85.3895 0000626 146.4543 200.4406  1.00270490 47348
DIRECTV 12              
1 36131U 09075A   26243.86899591 -.00000100  00000+0  00000+0 0  9997
2 36131   0.0315 311.6482 0000481 296.9448 301.5736  1.00271474 47311
BEIDOU-2 G1             
1 36287U 10001A   26243.91709612 -.00000275  00000+0  00000+0 0  9993
2 36287   4.4655  60.0868 0001626 260.5955 130.0415  1.00273879 60936
SDO                     
1 36395U 10005A   26243.58388440 -.00000064  00000+0  00000+0 0  9998
2 36395  34.8042  85.1952 0001764  75.9236 287.1505  1.00275317 60829
INTELSAT 16 (IS-16)     
1 36397U 10006A   26243.58908443 -.00000241  00000+0  00000+0 0  9999
2 36397   0.0189  84.1195 0002329  91.7489 299.7745  1.00271031 60419
EWS-G2 (GOES 15)        
1 36411U 10008A   26243.90184272  .00000025  00000+0  00000+0 0  9999
2 36411   1.4798  81.9398 0005324  76.9378 209.2234  1.00270529 60394
ECHOSTAR 14             
1 36499U 10010A   26243.59853306  .00000004  00000+0  00000+0 0  9991
2 36499   0.0411 286.3201 0002012 233.5120 276.5179  1.00270815 47307
SES-1                   
1 36516U 10016A   26243.86925591 -.00000111  00000+0  00000+0 0  9993
2 36516   0.0551 299.5130 0002512 232.7558  19.7125  1.00271412 59798
ASTRA 3B                
1 36581U 10021A   26243.75141181  .00000141  00000+0  00000+0 0  9996
2 36581   1.6586  82.5375 0003738  53.7684 137.6108  1.00272936 59623
COMSATBW-2              
1 36582U 10021B   26243.95600319  .00000092  00000+0  00000+0 0  9997
2 36582   0.0142 180.9209 0002561 358.7942 157.8128  1.00269658 59715
BEIDOU-2 G3             
1 36590U 10024A   26243.97628971 -.00000130  00000+0  00000+0 0  9999
2 36590   4.6891  61.1130 0005151   5.5101 344.5339  1.00269797 59522
BADR-5                  
1 36592U 10025A   26243.75279847  .00000157  00000+0  00000+0 0  9990
2 36592   0.0535 117.1295 0007593  92.6233  71.6779  1.00273462 53971
COMS 1                  
1 36744U 10032A   26243.88794929 -.00000278  00000+0  00000+0 0  9999
2 36744   4.9929  74.4051 0010569  19.9048 337.7644  0.99168239 51830
ARABSAT-5A              
1 36745U 10032B   26243.75279847  .00000157  00000+0  00000+0 0  9998
2 36745   0.2276  76.1932 0004356  79.0323 126.2026  1.00269947 59409
ECHOSTAR 15             
1 36792U 10034A   26243.55185309  .00000003  00000+0  00000+0 0  9999
2 36792   0.0661 277.6809 0002192 228.0796 273.8365  1.00270962 59071
BEIDOU-2 IGSO-1         
1 36828U 10036A   26233.75814490 -.00000137  00000+0  00000+0 0  9991
2 36828  54.3073 162.3689 0058186 224.3483 321.2966  1.00253816 58750
NILESAT 201             
1 36830U 10037A   26243.88788933 -.00000054  00000+0  00000+0 0  9990
2 36830   0.0245 204.6947 0005572 321.3539 126.6468  1.00272074 59134
RASCOM-QAF 1R           
1 36831U 10037B   26243.88988266  .00000022  00000+0  00000+0 0  9996
2 36831   0.0191 123.0942 0005207  31.8241 148.3890  1.00271947 59062
AEHF-1 (USA 214)        
1 36868U 10039A   26243.61014453  .00000152  00000+0  00000+0 0  9991
2 36868   8.4056  67.0469 0003867  96.0295  66.3110  1.00270829 54413
XM-5                    
1 37185U 10053A   26243.58137105 -.00000019  00000+0  00000+0 0  9999
2 37185   0.0738 274.2325 0000422 302.2967 217.3403  1.00270287 58231
BSAT-3B                 
1 37207U 10056B   26243.94975311 -.00000347  00000+0  00000+0 0  9990
2 37207   0.0955 258.4323 0004040 304.3170 229.1355  1.00271235 52851
BEIDOU-2 G4             
1 37210U 10057A   26243.92090948 -.00000108  00000+0  00000+0 0  9992
2 37210   3.8281  68.4119 0007378 177.6506 225.5905  1.00271525 58052
SKYTERRA 1              
1 37218U 10061A   26243.86925591 -.00000114  00000+0  00000+0 0  9996
2 37218   5.2819  50.6723 0000973  97.0065  44.0168  1.00272077 57952
HYLAS 1                 
1 37237U 10065A   26243.91240241 -.00000328  00000+0  00000+0 0  9996
2 37237   5.8279  72.0517 0003307 152.6055 181.0532  1.00648162  7649
INTELSAT 17 (IS-17)     
1 37238U 10065B   26243.54592424  .00000002  00000+0  00000+0 0  9997
2 37238   0.0055 144.0901 0002542  33.2365  64.9301  1.00270663 54006
BEIDOU-2 IGSO-2         
1 37256U 10068A   26243.01642102 -.00000167  00000+0  00000+0 0  9994
2 37256  47.4138 270.8943 0057472 215.6625 325.4311  1.00258049 57546
EUTELSAT KA-SAT 9A      
1 37258U 10069A   26243.32079141  .00000065  00000+0  00000+0 0  9994
2 37258   0.0726   5.6582 0005325 161.6887 296.6418  1.00273081 44769
HISPASAT 30W-5          
1 37264U 10070A   26243.88338264 -.00000213  00000+0  00000+0 0  9994
2 37264   0.0334 115.9227 0005657  45.6928 106.4691  1.00269831 53946
KOREASAT 6              
1 37265U 10070B   26243.44192944 -.00000108  00000+0  00000+0 0  9993
2 37265   0.0406 282.2908 0001999 252.0139 124.3034  1.00270881 57529
BEIDOU-2 IGSO-3         
1 37384U 11013A   26230.91979428 -.00000155  00000+0  00000+0 0  9993
2 37384  62.4969  39.5609 0036994 183.8957 178.9703  1.00253025 56292
INTELSAT 28 (IS-28)     
1 37392U 11016A   26243.88303597 -.00000221  00000+0  00000+0 0  9997
2 37392   1.9941  81.6154 0003927  89.6207  95.0323  1.00270095 54047
YAHSAT 1A               
1 37393U 11016B   26243.89967604  .00000104  00000+0  00000+0 0  9993
2 37393   0.0146 132.5578 0002184  14.5550 209.3546  1.00271221 43163
SBIRS GEO-1 (USA 230)   
1 37481U 11019A   26243.61439120  .00000104  00000+0  00000+0 0  9991
2 37481   4.7002  53.0203 0001713 108.1853  91.5728  1.00272519 56155
GSAT-8                  
1 37605U 11022A   26243.90019604  .00000088  00000+0  00000+0 0  9997
2 37605   2.3190  80.8261 0005676 155.2165 123.1974  1.00271436 53977
ST-2                    
1 37606U 11022B   26243.62158456 -.00000207  00000+0  00000+0 0  9990
2 37606   0.0183 108.0180 0002055  87.0801  96.4829  1.00270200 56034
ZHONGXING-10            
1 37677U 11026A   26243.97750306 -.00000185  00000+0  00000+0 0  9997
2 37677   1.2349  83.2293 0003191  57.3873 276.9594  1.00270459 55757
SES-3                   
1 37748U 11035A   26243.86890925 -.00000098  00000+0  00000+0 0  9999
2 37748   1.5148  82.1407 0002410  95.9315  11.7812  1.00271759 55351
KAZSAT-2                
1 37749U 11035B   26243.76386878 -.00000194  00000+0  00000+0 0  9993
2 37749   0.0179  98.1854 0001496 132.3029 110.9824  1.00271443 54156
BEIDOU-2 IGSO-4         
1 37763U 11038A   26243.76490878 -.00000059  00000+0  00000+0 0  9998
2 37763  54.6036 165.0022 0160427 231.0482 313.7907  1.00270703 55402
ASTRA 1N                
1 37775U 11041A   26243.95600319  .00000123  00000+0  00000+0 0  9990
2 37775   0.0654 344.9532 0005379 160.0885 198.4498  1.00273037 45283
BSAT-3C (JCSAT-110R)    
1 37776U 11041B   26243.94975311  .00000000  00000+0  00000+0 0  9991
2 37776   0.0190 273.5485 0000220 336.3881 182.0564  1.00268543 51227
SES-2                   
1 37809U 11049A   26243.87202926 -.00000192  00000+0  00000+0 0  9996
2 37809   0.2448  88.3391 0002896  74.1853  44.4611  1.00272244 54722
ARABSAT-5C              
1 37810U 11049B   26243.95600319  .00000127  00000+0  00000+0 0  9992
2 37810   0.0562 345.2318 0003981 189.0256 170.0398  1.00273575 54795
EUTELSAT 7 WEST A       
1 37816U 11051A   26243.38882503 -.00000056  00000+0  00000+0 0  9997
2 37816   0.0734  23.0513 0005569 143.2298 305.9667  1.00272212 54630
QUETZSAT 1              
1 37826U 11054A   26243.87402260 -.00000238  00000+0  00000+0 0  9995
2 37826   0.0173  87.3190 0002770  81.8911  48.4857  1.00271018 50631
INTELSAT 18 (IS-18)     
1 37834U 11056A   26243.85356918  .00000056  00000+0  00000+0 0  9999
2 37834   0.0411 284.2296 0002014 239.0857 304.0027  1.00270099 54572
EUTELSAT 16A            
1 37836U 11057A   26243.74993846  .00000107  00000+0  00000+0 0  9994
2 37836   0.0624  52.5752 0005546 105.0462 108.2673  1.00271011  8092
VIASAT-1                
1 37843U 11059A   26243.58137105 -.00000020  00000+0  00000+0 0  9999
2 37843   0.0170 184.8286 0002415 332.8648 276.2650  1.00270134 48073
ASIASAT 7               
1 37933U 11069A   26243.98148975 -.00000330  00000+0  00000+0 0  9995
2 37933   0.0481 281.6044 0001269 219.4634 297.8950  1.00267747 45612
BEIDOU-2 IGSO-5         
1 37948U 11073A   26243.55173093 -.00000100  00000+0  00000+0 0  9993
2 37948  47.5452 270.6027 0116874 223.8574 139.4305  1.00281545 53898
LUCH-5A                 
1 37951U 11074B   26243.85096917 -.00000046  00000+0  00000+0 0  9999
2 37951   8.9385  72.6771 0003907 115.0660 265.5702  1.00271381 53815
NIGCOMSAT 1R            
1 38014U 11077A   26243.90461331  .00000148  00000+0  00000+0 0  9997
2 38014   0.0258 206.2271 0002518 126.2498  15.7803  1.00273905 53718
WGS F4 (USA 233)        
1 38070U 12003A   26243.62167123 -.00000211  00000+0  00000+0 0  9992
2 38070   0.0040 150.0744 0000573 147.1391 354.8075  1.00272069 44902
SES-4                   
1 38087U 12007A   26243.88494265 -.00000165  00000+0  00000+0 0  9990
2 38087   0.0218  47.5263 0002361 113.0752 116.0328  1.00270614 52983
BEIDOU-2 G5             
1 38091U 12008A   26243.97221637  .00000060  00000+0  00000+0 0  9990
2 38091   3.7556  69.1531 0006199 248.5282  71.1989  1.00275070 53128
MUOS-1                  
1 38093U 12009A   26243.86960258 -.00000123  00000+0  00000+0 0  9991
2 38093   5.6282  47.0188 0053563   4.1880 141.9367  1.00272424 53202
INTELSAT 22 (IS-22)     
1 38098U 12011A   26243.61846455 -.00000055  00000+0  00000+0 0  9998
2 38098   0.0254  98.8937 0001833  69.0332 106.6027  1.00271766  7945
APSTAR-7                
1 38107U 12013A   26243.97568304 -.00000098  00000+0  00000+0 0  9991
2 38107   0.0266 117.6064 0003752  50.7658 239.5210  1.00271375 52575
YAHSAT 1B               
1 38245U 12016A   26243.90461331  .00000130  00000+0  00000+0 0  9998
2 38245   0.0927  90.0090 0001597  62.6367 200.7108  1.00270444 46361
AEHF-2 (USA 235)        
1 38254U 12019A   26243.81474234 -.00000130  00000+0  00000+0 0  9998
2 38254   6.8209  56.8854 0002387 117.6214  82.3305  1.00272637  7744
JCSAT-13                
1 38331U 12023A   26243.88794929 -.00000353  00000+0  00000+0 0  9999
2 38331   0.0475 278.0109 0002359 233.1678 272.5699  1.00271917 52300
VINASAT-2               
1 38332U 12023B   26243.88794929 -.00000325  00000+0  00000+0 0  9999
2 38332   0.0548 293.2858 0002115 226.1404 272.1654  1.00271347 47411
NIMIQ 6                 
1 38342U 12026A   26243.90600183 -.00000170  00000+0  00000+0 0  9992
2 38342   0.0570 279.6585 0002775 238.8807  56.6151  1.00271876 51173
ZHONGXING-2A            
1 38352U 12028A   26243.98001640 -.00000289  00000+0  00000+0 0  9997
2 38352   1.6424  82.8357 0001066 101.2808 247.1218  1.00272431 52053
INTELSAT 19 (IS-19)     
1 38356U 12030A   26243.86572622  .00000000  00000+0  00000+0 0  9994
2 38356   0.0142 147.1045 0003033  25.8248 284.7709  1.00270856 51219
ECHOSTAR 17             
1 38551U 12035A   26243.54905205 -.00000072  00000+0  00000+0 0  9998
2 38551   0.0188 131.0922 0002321  35.9968 263.2020  1.00271755 51815
METEOSAT-10 (MSG-3)     
1 38552U 12035B   26243.81803568 -.00000002  00000+0  00000+0 0  9991
2 38552   4.8449  60.5929 0000992 108.9858 105.0820  1.00268417 51612
SES-5                   
1 38652U 12036A   26243.32001140  .00000000  00000+0  00000+0 0  9992
2 38652   0.0162 345.4163 0002030 183.0507 291.2182  1.00270509 45211
INTELSAT 20 (IS-20)     
1 38740U 12043A   26243.22405799 -.00000021  00000+0  00000+0 0  9999
2 38740   0.0193 133.0599 0001480  38.0176 317.4802  1.00272440 51501
HYLAS 2                 
1 38741U 12043B   26243.88260264 -.00000199  00000+0  00000+0 0  9994
2 38741   2.6141  80.0726 0003030 151.0592  32.9982  1.00525310 51535
INTELSAT 21 (IS-21)     
1 38749U 12045A   26243.87916003 -.00000281  00000+0  00000+0 0  9994
2 38749   0.0488 277.7884 0002415 267.2941  53.4792  1.00270853 51281
ASTRA 2F                
1 38778U 12051A   26243.75227847  .00000154  00000+0  00000+0 0  9999
2 38778   0.0735 260.7086 0004101 300.4396  77.8000  1.00273969 41891
GSAT-10                 
1 38779U 12051B   26243.93308615 -.00000161  00000+0  00000+0 0  9992
2 38779   0.0826 269.9339 0005837 199.8754 289.2225  1.00270611 50855
INTELSAT 23 (IS-23)     
1 38867U 12057A   26243.87878929 -.00000281  00000+0  00000+0 0  9992
2 38867   0.0438 305.5502 0001208 278.5877  19.2907  1.00275804 50712
BEIDOU-2 G6             
1 38953U 12059A   26243.97724306 -.00000172  00000+0  00000+0 0  9999
2 38953   4.6060  72.6637 0007224 327.6765  15.6710  1.00272762 50662
LUCH-5B                 
1 38977U 12061A   26243.74352510 -.00000132  00000+0  00000+0 0  9993
2 38977  10.6415  49.1073 0005791 157.8274  24.4189  1.00271063 50365
YAMAL 300K              
1 38978U 12061B   26243.78293554  .00000075  00000+0  00000+0 0  9995
2 38978   0.0179 210.5562 0000502 190.2547  43.9646  1.00272637 50386
STAR ONE C3             
1 38991U 12062A   26243.87445594 -.00000246  00000+0  00000+0 0  9995
2 38991   0.0135  99.1813 0002130  65.1862  55.5072  1.00272919 50523
EUTELSAT 21B            
1 38992U 12062B   26243.95600319  .00000133  00000+0  00000+0 0  9997
2 38992   0.0690 349.2504 0003000 165.0415 191.5820  1.00270903 50586
ECHOSTAR 16             
1 39008U 12065A   26243.87714262 -.00000278  00000+0  00000+0 0  9994
2 39008   0.0197 128.5429 0002113  34.6399  71.1430  1.00270262 50406
ZHONGXING-12            
1 39017U 12067A   26243.97793639 -.00000203  00000+0  00000+0 0  9990
2 39017   0.0369 111.3261 0002792  48.0092 260.3886  1.00270894 50265
EUTELSAT 70B            
1 39020U 12069A   26243.19041763 -.00000040  00000+0  00000+0 0  9993
2 39020   0.0674   9.5573 0003541 150.2303 318.6216  1.00271994 50262
YAMAL 402               
1 39022U 12070A   26243.97143635  .00000089  00000+0  00000+0 0  9996
2 39022   1.4517  83.1060 0003634  77.9395 223.7229  1.00272371 50151
SKYNET 5D               
1 39034U 12075A   26243.89976271  .00000103  00000+0  00000+0 0  9992
2 39034   0.0787  10.9613 0003661 162.7703 182.9827  1.00272280 49917
MEXSAT 3                
1 39035U 12075B   26243.58917479 -.00000021  00000+0  00000+0 0  9994
2 39035   0.0145 106.4317 0001401  92.6525 237.9793  1.00268187  7807
TDRS 11                 
1 39070U 13004A   26243.78354221  .00000086  00000+0  00000+0 0  9998
2 39070   3.6349  32.3765 0003328  36.7819  18.7660  1.00280001 47452
AMAZONAS 3              
1 39078U 13006A   26243.47508301 -.00000279  00000+0  00000+0 0  9999
2 39078   0.0330 216.8361 0004940 331.5758 261.2673  1.00268815 45660
AZERSPACE 1             
1 39079U 13006B   26243.25689125  .00000137  00000+0  00000+0 0  9992
2 39079   0.0170 232.0892 0001494 299.9624 305.8512  1.00270823 49564
SBIRS GEO-2 (USA 241)   
1 39120U 13011A   26243.87454260 -.00000183  00000+0  00000+0 0  9995
2 39120   4.6512  52.4707 0001574 125.9592  41.9521  0.99676142 49290
EUTELSAT 117 WEST A     
1 39122U 13012A   26243.58102439 -.00000009  00000+0  00000+0 0  9991
2 39122   0.0642 284.3708 0002875 248.5620 259.1969  1.00272298 49186
ANIK G1                 
1 39127U 13014A   26243.86795591 -.00000071  00000+0  00000+0 0  9995
2 39127   0.0593 271.6483 0002693 266.5186   7.0462  1.00271450 49019
ZHONGXING-11            
1 39157U 13020A   26243.97992973  .00000000  00000+0  00000+0 0  9991
2 39157   0.0113 120.5185 0001527 353.6107 316.7054  1.00272420 48651
EUTELSAT 7B             
1 39163U 13022A   26241.89481277  .00000052  00000+0  00000+0 0  9996
2 39163   0.0857 315.4101 0001464  99.4624 252.4360  1.00275706 48684
WGS F5 (USA 243)        
1 39168U 13024A   26243.52252412  .00000000  00000+0  00000+0 0  9995
2 39168   0.0194 141.6094 0000521  63.8262 269.8617  1.00267893 47931
SES-6                   
1 39172U 13026A   26243.88130263  .00000000  00000+0  00000+0 0  9990
2 39172   0.0186 267.6212 0002072 256.7355  92.4597  1.00267998 48481
IRNSS-1A                
1 39199U 13034A   26241.60275457  .00000089  00000+0  00000+0 0  9998
2 39199  35.8818  62.8189 0019731 177.7017   9.3907  1.00270561 48104
MUOS-2                  
1 39206U 13036A   26243.78068220 -.00000008  00000+0  00000+0 0  9990
2 39206   5.1441  45.5539 0056053 176.7008 210.7755  1.00269611 47954
ALPHASAT                
1 39215U 13038A   26243.75167181  .00000139  00000+0  00000+0 0  9999
2 39215   3.0019   0.8094 0003692 181.1780  93.4248  1.00272838 44775
INSAT-3D                
1 39216U 13038B   26243.88794929 -.00000335  00000+0  00000+0 0  9999
2 39216   2.1138  81.5114 0001369 122.8777 224.8699  1.00272219 47837
WGS F6 (USA 244)        
1 39222U 13041A   26243.35526214  .00000000  00000+0  00000+0 0  9990
2 39222   0.0223 139.1971 0000321 122.9771  70.0402  1.00270578 46815
ES'HAIL 1               
1 39233U 13044A   26243.75175847  .00000147  00000+0  00000+0 0  9993
2 39233   0.0536 337.1853 0002352 184.3440 114.5140  1.00271370 47381
GSAT-7                  
1 39234U 13044B   26243.93308615 -.00000074  00000+0  00000+0 0  9995
2 39234   0.2681  87.6245 0004781 163.4985 138.9188  1.00271857 46018
AMOS-4                  
1 39237U 13045A   26243.75964516  .00000010  00000+0  00000+0 0  9996
2 39237   0.0194 119.0020 0001336  20.4548 178.9709  1.00273740 47713
AEHF-3 (USA 246)        
1 39256U 13050A   26243.57955104  .00000033  00000+0  00000+0 0  9991
2 39256   5.4767  66.4529 0090704 188.1068 169.5963  1.00274178 46403
ASTRA 2E                
1 39285U 13056A   26243.75236514  .00000154  00000+0  00000+0 0  9990
2 39285   0.0910 304.1914 0002284 209.8502 125.2124  1.00271959 47173
FM-6                    
1 39360U 13058A   26243.58111105 -.00000012  00000+0  00000+0 0  9999
2 39360   0.0192 228.5446 0001283   8.3155 195.7530  1.00270938 46822
RADUGA-1M 3             
1 39375U 13062A   26243.61109786  .00000157  00000+0  00000+0 0  9995
2 39375   6.1450  71.3706 0002063 297.8576 225.5152  1.00271539 46868
SES-8                   
1 39460U 13071A   26243.12336561 -.00000266  00000+0  00000+0 0  9991
2 39460   0.0542 277.0245 0002343 216.8090 344.8926  1.00271221 45180
INMARSAT 5-F1           
1 39476U 13073A   26243.75912516  .00000031  00000+0  00000+0 0  9998
2 39476   0.0197 127.7336 0000426  63.7368 124.3742  1.00271953 46339
TKSAT-1 (TUPAC KATARI)  
1 39481U 13075A   26243.87202926 -.00000191  00000+0  00000+0 0  9994
2 39481   0.0453 303.3663 0002193 207.1672  56.2553  1.00271025 46366
EXPRESS-AM5             
1 39487U 13077A   26243.70287825 -.00000276  00000+0  00000+0 0  9999
2 39487   0.0412 292.6976 0001340 199.6902 240.5713  1.00272380 47113
GSAT-14                 
1 39498U 14001A   26243.90392273 -.00000074  00000+0  00000+0 0  9991
2 39498   0.0374  99.8859 0004774 118.1616 161.4592  1.00271511 46133
THAICOM 6               
1 39500U 14002A   26243.93308615 -.00000118  00000+0  00000+0 0  9995
2 39500   0.0489 114.4355 0004060  35.2356 244.8759  1.00271273 46212
TDRS 12                 
1 39504U 14004A   26243.91765426 -.00000265  00000+0  00000+0 0  9999
2 39504   4.0554  20.2267 0006080 212.6792  36.6252  1.00273995 45035
ABS-2                   
1 39508U 14006A   26243.93308615 -.00000083  00000+0  00000+0 0  9998
2 39508   0.0594 273.6321 0003206 251.0145 226.2954  1.00271649 46031
ATHENA-FIDUS            
1 39509U 14006B   26243.89681603  .00000158  00000+0  00000+0 0  9997
2 39509   0.0263 114.7391 0001491  65.8820 160.1041  1.00272935 45842
TURKSAT 4A              
1 39522U 14007A   26243.90461331  .00000150  00000+0  00000+0 0  9991
2 39522   0.0818 285.2933 0003346 316.3708 106.1028  1.00270465 45727
EXPRESS-AT1             
1 39612U 14010A   26243.97498971 -.00000074  00000+0  00000+0 0  9998
2 39612   0.4451  84.8720 0005082  74.8307 244.4295  1.00315146 45572
EXPRESS-AT2             
1 39613U 14010B   26243.11631729  .00000081  00000+0  00000+0 0  9992
2 39613   0.0266 254.3733 0000436 249.2916 293.5310  1.00277921 45248
AMAZONAS 4A             
1 39616U 14011A   26243.87462927 -.00000249  00000+0  00000+0 0  9998
2 39616   0.0677 212.3874 0006237 324.7893  43.7663  1.00272141 45475
ASTRA 5B                
1 39617U 14011B   26243.75141181  .00000140  00000+0  00000+0 0  9991
2 39617   0.1003 293.6414 0002661 248.3765  91.9040  1.00270438 45424
IRNSS-1B                
1 39635U 14017A   26241.09350273  .00000120  00000+0  00000+0 0  9994
2 39635  28.8014 239.1486 0020751 194.1058 352.9027  1.00279231 45526
LUCH-5V                 
1 39727U 14023A   26243.97932307 -.00000265  00000+0  00000+0 0  9997
2 39727   5.3148  68.9109 0002452 124.1830 234.3260  1.00275489 45113
KAZSAT-3                
1 39728U 14023B   26243.40182509  .00000000  00000+0  00000+0 0  9993
2 39728   0.0137 128.5021 0000413 152.3077 261.9338  1.00271305 43215
EUTELSAT 3B             
1 39773U 14030A   26243.88988266  .00000024  00000+0  00000+0 0  9993
2 39773   0.0660 332.8917 0004300 192.5541 138.0822  1.00273077 44829
ASIASAT 8 (AMOS-7)      
1 40107U 14046A   26243.55372426 -.00000330  00000+0  00000+0 0  9993
2 40107   0.0511 279.1275 0001809 217.2010 148.0374  1.00274523102908
ASIASAT 6               
1 40141U 14052A   26243.98434976 -.00000359  00000+0  00000+0 0  9995
2 40141   0.0374  83.2835 0000985  76.1994 294.9534  1.00272862 43846
OPTUS 10                
1 40146U 14054A   26243.85059650 -.00000144  00000+0  00000+0 0  9992
2 40146   0.0104 106.6167 0001981  54.9646 280.6492  1.00270803 43786
MEASAT-3B               
1 40147U 14054B   26243.92753120 -.00000238  00000+0  00000+0 0  9998
2 40147   0.0332  26.0751 0001446  91.3060 288.1174  1.00272916 43670
HIMAWARI-8              
1 40267U 14060A   26243.58628274 -.00000272  00000+0  00000+0 0  9999
2 40267   0.0466 313.6486 0001618 255.2044 122.6563  1.00269561 43514
IRNSS-1C                
1 40269U 14061A   26243.71433535 -.00000158  00000+0  00000+0 0  9994
2 40269   6.7048  87.4766 0020597   8.9497 223.6652  1.00273162 43449
INTELSAT 30 (IS-30)     
1 40271U 14062A   26243.08641715 -.00000148  00000+0  00000+0 0  9998
2 40271   0.0197  91.1841 0001513 311.4706 232.6963  1.00272546  7543
ARSAT 1                 
1 40272U 14062B   26243.87506260 -.00000256  00000+0  00000+0 0  9991
2 40272   0.0407  73.2538 0001566  80.7558  69.2684  1.00271594 43389
EUTELSAT 53A            
1 40277U 14064A   26243.97108969  .00000000  00000+0  00000+0 0  9999
2 40277   0.0195 134.4965 0001841  65.9110 182.3287  1.00272267 42324
GSAT-16                 
1 40332U 14078A   26243.90019604  .00000088  00000+0  00000+0 0  9992
2 40332   0.0576 270.2654 0006033 197.4315 251.5219  1.00271620 42875
DIRECTV 14              
1 40333U 14078B   26243.86960258 -.00000122  00000+0  00000+0 0  9998
2 40333   0.0126  74.4299 0000353 348.7914 130.6455  1.00273330 42803
YAMAL 401               
1 40345U 14082A   26243.97836972 -.00000224  00000+0  00000+0 0  9996
2 40345   0.0192 193.5509 0000484  47.0634 181.6928  1.00269619 42670
ASTRA 2G                
1 40364U 14089A   26243.75227847  .00000153  00000+0  00000+0 0  9995
2 40364   0.0531 332.3214 0002693 127.4487 179.1682  1.00271378 42727
FENGYUN 2G              
1 40367U 14090A   26243.98027640 -.00000299  00000+0  00000+0 0  9996
2 40367   5.8229  71.8665 0003760 183.2514 177.4661  1.00279943 42767
MUOS-3                  
1 40374U 15002A   26243.81500234 -.00000125  00000+0  00000+0 0  9993
2 40374   4.6651  43.7562 0056821 178.0489  36.0706  1.00270615 42345
INMARSAT 5-F2           
1 40384U 15005A   26243.45067713 -.00000282  00000+0  00000+0 0  9991
2 40384   0.0018 176.1273 0001002  19.4421 251.2640  1.00269530 41743
ABS-3A                  
1 40424U 15010A   26243.31845140 -.00000022  00000+0  00000+0 0  9997
2 40424   0.0103 126.4129 0001931 344.2679 340.4765  1.00273779 42128
EUTELSAT 115 WEST B     
1 40425U 15010B   26243.58145772 -.00000021  00000+0  00000+0 0  9990
2 40425   0.0078 282.9134 0000136 149.8092   1.4628  1.00272145 42137
EXPRESS-AM7             
1 40505U 15012A   26243.90461331  .00000154  00000+0  00000+0 0  9995
2 40505   0.0153 103.0801 0003061  67.9355 174.7282  1.00273748 41764
BEIDOU-3S IGSO-1S       
1 40549U 15019A   26243.62271124 -.00000154  00000+0  00000+0 0  9999
2 40549  49.0506 294.5494 0039137 200.2477 164.3210  1.00292195 41832
THOR 7                  
1 40613U 15022A   26243.88918933 -.00000005  00000+0  00000+0 0  9994
2 40613   0.0295 236.1410 0002504 287.8986 135.4818  1.00270957 41576
TURKMENALEM52E/MONACOSAT
1 40617U 15023A   26243.61447787  .00000107  00000+0  00000+0 0  9996
2 40617   0.0359  96.5014 0003069  74.0069  82.5228  1.00273285 41602
DIRECTV 15              
1 40663U 15026A   26243.86882258 -.00000099  00000+0  00000+0 0  9994
2 40663   0.0202 127.5387 0000534  39.0488  23.3755  1.00269443 41225
SKY MEXICO-1            
1 40664U 15026B   26243.87367594 -.00000231  00000+0  00000+0 0  9995
2 40664   0.0419 302.7243 0002720 231.6274  41.4275  1.00271219 41217
METEOSAT-11 (MSG-4)     
1 40732U 15034A   26243.89109601  .00000065  00000+0  00000+0 0  9999
2 40732   3.3861  70.5724 0000752  54.1307 185.4439  1.00268707  7976
STAR ONE C4             
1 40733U 15034B   26243.87540927 -.00000262  00000+0  00000+0 0  9998
2 40733   0.0432 328.8824 0001043 194.2207  62.1097  1.00271007 40777
WGS F7 (USA 263)        
1 40746U 15036A   26242.85472291  .00000021  00000+0  00000+0 0  9991
2 40746   0.0093 119.8866 0000167  96.2018 245.6802  1.00270249 40628
INTELSAT 34 (IS-34)     
1 40874U 15039A   26243.87611745 -.00000282  00000+0  00000+0 0  9998
2 40874   0.0158 321.7083 0000380  74.4802 203.7816  1.00272380 40395
EUTELSAT 8 WEST B       
1 40875U 15039B   26243.88771600 -.00000062  00000+0  00000+0 0  9993
2 40875   0.0665 347.6151 0003530 169.0294 135.0038  1.00272542 40414
GSAT-6                  
1 40880U 15041A   26243.93308615 -.00000157  00000+0  00000+0 0  9995
2 40880   2.1090  81.5685 0003039  72.9602 244.0093  1.00271562 40356
INMARSAT 5-F3           
1 40882U 15042A   26243.85356918  .00000000  00000+0  00000+0 0  9994
2 40882   0.0235 129.0014 0000117 257.8161  80.0410  1.00268041 40335
MUOS-4                  
1 40887U 15044A   26243.93308615 -.00000088  00000+0  00000+0 0  9998
2 40887   4.4698  42.5771 0053485   4.0360 344.3957  1.00271654 40313
TJS-1                   
1 40892U 15046A   26243.91995613 -.00000153  00000+0  00000+0 0  9997
2 40892   0.5111  84.2587 0004009  58.4400 323.5734  1.00269889 40331
EXPRESS-AM8             
1 40895U 15048A   26243.95782963 -.00000108  00000+0  00000+0 0  9998
2 40895   0.0258 253.7382 0000077 283.6238 133.5993  1.00272998 40105
BEIDOU-3S IGSO-2S       
1 40938U 15053A   26214.59725278 -.00000074  00000+0  00000+0 0  9998
2 40938  49.1518 258.2267 0066355 193.9763 165.8677  1.00249594 39814
SKY MUSTER 1 (NBN1A)    
1 40940U 15054A   26243.51364362 -.00000275  00000+0  00000+0 0  9992
2 40940   0.0222 233.7269 0001761 284.2277 146.9138  1.00272502 40010
ARSAT 2                 
1 40941U 15054B   26243.87324260 -.00000221  00000+0  00000+0 0  9996
2 40941   0.0395  76.6649 0001842  83.5573  53.1955  1.00271519 40065
MORELOS 3               
1 40946U 15056A   26243.58180439 -.00000039  00000+0  00000+0 0  9996
2 40946   3.2541  16.9202 0002712 185.9552 233.2300  1.00272296 40047
APSTAR-9                
1 40982U 15059A   26243.91744279 -.00000263  00000+0  00000+0 0  9993
2 40982   0.0458 321.7970 0002577 219.8101 270.7815  1.00269859 39860
TURKSAT 4B              
1 40984U 15060A   26243.90461331  .00000119  00000+0  00000+0 0  9990
2 40984   0.0320 269.2624 0002132 266.3286 180.1667  1.00269405 39855
ZHONGXING-2C            
1 41021U 15063A   26243.98105640 -.00000320  00000+0  00000+0 0  9997
2 41021   0.4615  87.2787 0009906 109.7958 239.7182  1.00270387 39730
GSAT-15                 
1 41028U 15065A   26243.92753120 -.00000255  00000+0  00000+0 0  9999
2 41028   0.0715 268.9319 0001933 219.9136 278.6707  1.00272390 39558
BADR-7 (ARABSAT-6B)     
1 41029U 15065B   26243.75184514  .00000148  00000+0  00000+0 0  9996
2 41029   0.0394 229.7173 0006264 347.0185  59.8417  1.00270873 39522
LAOSAT 1                
1 41034U 15067A   26243.88794929 -.00000339  00000+0  00000+0 0  9998
2 41034   0.0182  77.3753 0002252  35.4324 315.4382  1.00273146 39618
TELSTAR 12V             
1 41036U 15068A   26243.88632932 -.00000115  00000+0  00000+0 0  9998
2 41036   0.0118 105.8860 0002204  59.9904 118.2683  1.00271447 39386
ELEKTRO-L 2             
1 41105U 15074A   26243.81508902 -.00000113  00000+0  00000+0 0  9992
2 41105   6.8768  69.5653 0001573 182.7077   6.6314  1.00270654 39265
COSMOS 2513             
1 41121U 15075A   26243.97646304 -.00000135  00000+0  00000+0 0  9991
2 41121   0.0421 108.6111 0001157  55.2346 248.0871  1.00273503 39301
EXPRESS-AMU1            
1 41191U 15082A   26243.89646936  .00000000  00000+0  00000+0 0  9998
2 41191   0.0199 141.8061 0002309  37.2861 159.7922  1.00269448 39022
GAOFEN-4                
1 41194U 15083A   26243.98148975 -.00000331  00000+0  00000+0 0  9990
2 41194   0.5452  83.5488 0003848 133.0318 222.6327  1.00271817 39288
BELINTERSAT-1           
1 41238U 16001A   26243.89950271  .00000110  00000+0  00000+0 0  9994
2 41238   0.0205 262.8836 0001123 185.9194 266.5940  1.00272608 38993
IRNSS-1E                
1 41241U 16003A   26243.89350145 -.00000288  00000+0  00000+0 0  9991
2 41241  33.3985  58.6536 0021282 177.4243 177.3660  1.00268879 38834
EUTELSAT 9B             
1 41310U 16005A   26243.32079141  .00000066  00000+0  00000+0 0  9995
2 41310   0.0458  71.5786 0002268 128.5513 263.8596  1.00273114 38879
SES-9                   
1 41380U 16013A   26243.34046483 -.00000342  00000+0  00000+0 0  9994
2 41380   0.0067 189.2726 0001876 302.8992  78.2184  1.00272356 38198
EUTELSAT 65 WEST A      
1 41382U 16014A   26243.87636262 -.00000273  00000+0  00000+0 0  9998
2 41382   0.0629  29.9685 0002380 128.4039  71.9930  1.00271817 38283
IRNSS-1F                
1 41384U 16015A   26243.82444905  .00000161  00000+0  00000+0 0  9992
2 41384   5.5339  95.0327 0019560 175.3257  38.9009  1.00269261 38427
BEIDOU-2 IGSO-6         
1 41434U 16021A   26241.90113954 -.00000137  00000+0  00000+0 0  9993
2 41434  60.3362  37.3117 0060705 227.8765 133.3294  1.00285004 38225
IRNSS-1G                
1 41469U 16027A   26243.88794929 -.00000331  00000+0  00000+0 0  9999
2 41469   5.3775  95.7124 0004062  38.8223 294.7039  1.00275192 37932
JCSAT-2B                
1 41471U 16028A   26243.57058572 -.00000162  00000+0  00000+0 0  9998
2 41471   0.0147 125.2813 0001052  44.7679 169.1139  1.00270358 37880
THAICOM 8               
1 41552U 16031A   26243.93308615 -.00000118  00000+0  00000+0 0  9999
2 41552   0.0654  18.8775 0001477  83.5414 292.1136  1.00273285 37477
INTELSAT 31 (IS-31)     
1 41581U 16035A   26243.48253623 -.00000147  00000+0  00000+0 0  9995
2 41581   0.0419 264.2570 0001580  62.8764  91.2032  1.00271539 37430
BEIDOU-2 G7             
1 41586U 16037A   26243.98244308 -.00000350  00000+0  00000+0 0  9993
2 41586   1.9011  69.6460 0005099 358.4130  16.3417  1.00270944  7653
ABS-2A (MONGOLSAT-1)    
1 41588U 16038A   26243.47641726 -.00000080  00000+0  00000+0 0  9995
2 41588   0.0099 148.4646 0001856 315.1480 122.2846  1.00268549 37461
EUTELSAT 117 WEST B     
1 41589U 16038B   26243.58102439 -.00000008  00000+0  00000+0 0  9991
2 41589   0.0081 285.3042 0000244  52.7842  93.8417  1.00269041 37410
BRISAT                  
1 41591U 16039A   26243.57614360 -.00000193  00000+0  00000+0 0  9990
2 41591   0.0193 238.0684 0002152 281.9816 177.6273  1.00271113 37369
ECHOSTAR 18             
1 41592U 16039B   26243.52070411  .00000000  00000+0  00000+0 0  9995
2 41592   0.0230 138.0171 0001614  32.3706 295.4035  1.00270153 37380
MUOS-5                  
1 41622U 16041A   26243.86838925 -.00000118  00000+0  00000+0 0  9992
2 41622   2.0498 303.2961 0203193 260.7115 343.6540  1.00271997 37847
TIANTONG-1 1            
1 41725U 16048A   26243.98062307 -.00000313  00000+0  00000+0 0  9996
2 41725   3.9933  43.9032 0002952  79.8262 310.8542  1.00273283 37033
JCSAT-16                
1 41729U 16050A   26243.57614360 -.00000247  00000+0  00000+0 0  9996
2 41729   0.0013 181.0575 0001003 349.9028 160.1633  1.00272204 36822
USA 270                 
1 41744U 16052A   26243.34401816 -.00000346  00000+0  00000+0 0  9990
2 41744   4.3845  76.1950 0008142 111.5672  41.8279  1.00277895 28888
USA 271                 
1 41745U 16052B   26243.10198609 -.00000279  00000+0  00000+0 0  9993
2 41745   4.3566  76.2714 0013877 166.6302 230.2892  1.00258141 28675
INTELSAT 36 (IS-36)     
1 41747U 16053A   26243.90288272  .00000000  00000+0  00000+0 0  9991
2 41747   0.0169 106.3649 0001802 232.6312  34.6162  1.00269429 36712
INSAT-3DR               
1 41752U 16054A   26243.93308615 -.00000074  00000+0  00000+0 0  9997
2 41752   0.0881  92.4143 0011491 172.2620 125.3605  1.00271811 36571
GSAT-18                 
1 41793U 16060A   26243.93308615 -.00000074  00000+0  00000+0 0  9999
2 41793   0.0626  92.9020 0003440  26.7939 270.3316  1.00271354 36283
SKY MUSTER 2 (NBN1B)    
1 41794U 16060B   26243.49697359 -.00000240  00000+0  00000+0 0  9992
2 41794   0.0209 229.9231 0001599 289.9613 143.5020  1.00273251 36272
HIMAWARI-9              
1 41836U 16064A   26243.58628264 -.00000271  00000+0  00000+0 0  9996
2 41836   0.0194 234.4232 0001264 316.8105 140.3481  1.00272716 35965
SHIJIAN-17 (SJ-17)      
1 41838U 16065A   26243.48647063 -.00000345  00000+0  00000+0 0  9998
2 41838   5.9370  71.6588 0001870  74.9073 134.0051  0.99864054 35952
GOES 16                 
1 41866U 16071A   26243.86856258 -.00000087  00000+0  00000+0 0  9999
2 41866   0.5195  84.8009 0001638 124.9568 338.2737  1.00272322 35863
TIANLIAN 1-04           
1 41869U 16072A   26243.85296251  .00000036  00000+0  00000+0 0  9996
2 41869   1.0576  82.2732 0046235  94.3820 287.3239  1.00275778 36065
WGS F8 (USA 272)        
1 41879U 16075A   26243.57614360 -.00000199  00000+0  00000+0 0  9995
2 41879   0.0189 113.8409 0000092 287.6370 295.5039  1.00271136 35573
FENGYUN 4A              
1 41882U 16077A   26243.98495642 -.00000354  00000+0  00000+0 0  9999
2 41882   2.5074  79.3202 0008138 165.4538 213.3443  1.00264438 35699
ECHOSTAR 19             
1 41893U 16079A   26243.90600183 -.00000135  00000+0  00000+0 0  9990
2 41893   0.0102 120.0524 0001494  44.2539  44.8396  1.00270974 35461
JCSAT-110A (JCSAT-15)   
1 41903U 16082A   26243.94975311 -.00000347  00000+0  00000+0 0  9993
2 41903   0.0194 137.4833 0000805  51.7827 242.8417  1.00270588 35518
STAR ONE D1             
1 41904U 16082B   26243.87263593 -.00000207  00000+0  00000+0 0  9993
2 41904   0.0078 127.8787 0002290  21.9796  60.3241  1.00269734 35536
TJS-2                   
1 41911U 17001A   26243.90244939 -.00000003  00000+0  00000+0 0  9994
2 41911   1.0207  84.1792 0001693 140.5215 146.8127  1.00271935 35472
SBIRS GEO-4 (USA 273)   
1 41937U 17004A   26243.89109601 -.00000040  00000+0  00000+0 0  9990
2 41937   2.3897  45.0388 0002358 102.4519 162.6119  0.99673935 35356
HISPASAT 36W-1          
1 41942U 17006A   26243.73962509 -.00000241  00000+0  00000+0 0  9998
2 41942   0.0121 263.5065 0001105 251.8389  54.8449  1.00272217 35000
TELKOM 3S               
1 41944U 17007A   26243.94419838 -.00000359  00000+0  00000+0 0  9996
2 41944   0.0111 147.4623 0002405  17.1427 273.4348  1.00271317 34894
INTELSAT 32E (IS-32E)   
1 41945U 17007B   26243.49163887 -.00000265  00000+0  00000+0 0  9993
2 41945   0.0335 264.0389 0000480 188.9517  20.5032  1.00272139 34980
ECHOSTAR 23             
1 42070U 17014A   26243.86743591  .00000000  00000+0  00000+0 0  9994
2 42070   0.0222 134.1660 0001999  29.5459  18.7085  1.00270562 34687
WGS F9 (USA 275)        
1 42075U 17016A   26243.88693598  .00000000  00000+0  00000+0 0  9994
2 42075   0.0195 153.2288 0000296  65.9311  68.2346  1.00270086 34657
SES-10                  
1 42432U 17017A   26243.87601595 -.00000269  00000+0  00000+0 0  9995
2 42432   0.0148  73.4562 0002687  93.3083  61.7645  1.00269811 34516
CHINASAT 16 (SJ-13)     
1 42662U 17018A   26243.62609125 -.00000349  00000+0  00000+0 0  9990
2 42662   0.0761  93.4726 0007217 128.2687  94.0159  1.00273073 34501
KOREASAT 7              
1 42691U 17023A   26243.94419838 -.00000358  00000+0  00000+0 0  9993
2 42691   0.0225  39.7940 0000952 125.8368 270.2897  1.00271738 34128
SGDC                    
1 42692U 17023B   26243.26504070  .00000000  00000+0  00000+0 0  9995
2 42692   0.0131 142.9154 0002274  23.9727 193.1178  1.00270690 34159
GSAT-9                  
1 42695U 17024A   26243.92753120 -.00000283  00000+0  00000+0 0  9998
2 42695   0.0217 219.0898 0002637 306.3687 245.8684  1.00273517 34051
INMARSAT 5-F4           
1 42698U 17025A   26243.75791183  .00000000  00000+0  00000+0 0  9990
2 42698   0.0222 131.5345 0000622  86.4835  91.2539  1.00270872 34039
SES-15                  
1 42709U 17026A   26243.57859771  .00000064  00000+0  00000+0 0  9992
2 42709   0.0403 296.2350 0000326 245.1016 237.5375  1.00268301  8188
QZS-2 (MICHIBIKI-2)     
1 42738U 17028A   26243.84464248 -.00000111  00000+0  00000+0 0  9991
2 42738  39.3195 242.0382 0752235 270.2589 273.7698  1.00264524  8389
VIASAT-2                
1 42740U 17029A   26243.87540927 -.00000262  00000+0  00000+0 0  9994
2 42740   0.0372 283.7371 0000373 242.1232  59.4504  1.00270169 33954
EUTELSAT 172B           
1 42741U 17029B   26243.55044962 -.00000002  00000+0  00000+0 0  9990
2 42741   0.0243 134.7398 0000074  36.8080 178.3518  1.00271696 34495
GSAT-19                 
1 42747U 17031A   26243.90461331  .00000128  00000+0  00000+0 0  9999
2 42747   0.0169 213.5626 0004059 250.0301 250.0214  1.00273867 33909
ECHOSTAR 21             
1 42749U 17032A   26243.82002903  .00000070  00000+0  00000+0 0  9995
2 42749   1.7776   0.4584 0002415 166.5763 118.4287  1.00271438 33859
BULGARIASAT-1           
1 42801U 17038A   26243.31940473  .00000017  00000+0  00000+0 0  9998
2 42801   0.0350  97.2012 0004088  89.5164 269.6819  1.00283510 33590
HELLAS-SAT 3            
1 42814U 17040A   26243.75444515  .00000156  00000+0  00000+0 0  9993
2 42814   0.0707  55.7794 0002161  44.0218 190.7511  1.00274293 33560
GSAT-17                 
1 42815U 17040B   26243.92753120 -.00000254  00000+0  00000+0 0  9998
2 42815   0.0447 271.0112 0003618 344.3837 152.1302  1.00269812 33549
INTELSAT 35E (IS-35E)   
1 42818U 17041A   26243.88242931  .00000000  00000+0  00000+0 0  9998
2 42818   0.0180 149.6631 0002228  44.0995  69.4618  1.00269461 33570
COSMOS 2520             
1 42907U 17046A   26243.90461331  .00000140  00000+0  00000+0 0  9997
2 42907   0.0248 109.6362 0000495  30.3028 210.7936  1.00273389 33152
TDRS 13                 
1 42915U 17047A   26243.88702265 -.00000094  00000+0  00000+0 0  9997
2 42915   3.4772   4.5118 0014036 120.7983 162.7166  1.00271346 33109
QZS-3 (MICHIBIKI-3)     
1 42917U 17048A   26243.88794929 -.00000345  00000+0  00000+0 0  9997
2 42917   0.0560 192.3342 0002170 330.4465 263.9645  1.00268705 33016
AMAZONAS 5              
1 42934U 17053A   26243.84269987  .00000000  00000+0  00000+0 0  9996
2 42934   0.0115 298.1110 0001896 263.2010  21.0756  1.00268223 32809
ASIASAT 9               
1 42942U 17057A   26243.98478308 -.00000356  00000+0  00000+0 0  9998
2 42942   0.0140 123.5894 0002210  33.4489 299.7458  1.00270146 32624
INTELSAT 37E (IS-37E)   
1 42950U 17059A   26243.88572265 -.00000137  00000+0  00000+0 0  9992
2 42950   0.0165 226.4717 0003366 308.3049 106.1471  1.00271517 32827
BSAT-4A                 
1 42951U 17059B   26243.94975311 -.00000347  00000+0  00000+0 0  9992
2 42951   0.0520 313.1172 0002026 149.6311 329.1179  1.00272590 32556
QZS-4 (MICHIBIKI-4)     
1 42965U 17062A   26242.60248192 -.00000292  00000+0  00000+0 0  9992
2 42965  40.0604 342.5387 0749307 269.3331  84.4362  1.00277866 32550
SES-11 (ECHOSTAR 105)   
1 42967U 17063A   26243.86838925 -.00000086  00000+0  00000+0 0  9994
2 42967   0.0213  30.2275 0002550 113.9359  43.5458  1.00271552 32487
KOREASAT 5A             
1 42984U 17067A   26243.94975311  .00000000  00000+0  00000+0 0  9992
2 42984   0.0108 156.1771 0001041  35.0444 243.9641  1.00270050 32281
ALCOMSAT 1              
1 43039U 17078A   26243.88442264 -.00000182  00000+0  00000+0 0  9997
2 43039   0.0400 302.6696 0002215 207.7275 123.2614  1.00272993 32059
SBIRS GEO-3 (USA 282)   
1 43162U 18009A   26243.78648889  .00000132  00000+0  00000+0 0  9993
2 43162   2.2443  15.4402 0001993 150.9304 297.3380  1.00272126 31606
AL YAH 3                
1 43174U 18012A   26243.88528932 -.00000152  00000+0  00000+0 0  9990
2 43174   1.7397  82.0964 0003550  79.5054 117.0669  1.00272456 31607
SES-14                  
1 43175U 18012B   26243.87991596 -.00000275  00000+0  00000+0 0  9996
2 43175   0.0137  63.3541 0001164  99.1632  86.8160  1.00271653  7783
GOES 17                 
1 43226U 18022A   26243.90600183 -.00000179  00000+0  00000+0 0  9990
2 43226   1.1245  84.4542 0001069 124.5358   7.7564  1.00270349 31181
HISPASAT 30W-6          
1 43228U 18023A   26243.88338264 -.00000213  00000+0  00000+0 0  9997
2 43228   0.0418  51.6324 0003759  78.2087 138.2436  1.00270372 31161
SUPERBIRD-B3            
1 43271U 18033A   26243.85615459 -.00000089  00000+0  00000+0 0  9998
2 43271   0.0301 261.8501 0001406 275.4783 272.9317  1.00271526 30810
HYLAS 4                 
1 43272U 18033B   26243.45492383 -.00000230  00000+0  00000+0 0  9992
2 43272   0.0721 271.1592 0001150 269.7209 289.0291  1.00271443 30825
IRNSS-1I                
1 43286U 18035A   26243.61499787  .00000088  00000+0  00000+0 0  9992
2 43286  28.9271  73.0200 0019801 176.8238   6.6271  1.00279015 30831
USA 283                 
1 43339U 18036A   26242.49020127  .00000000  00000+0  00000+0 0  9999
2 43339   0.0248 146.5505 0000794  82.7810  59.9165  1.00269640 26034
COSMOS 2526             
1 43432U 18037A   26243.98590976 -.00000341  00000+0  00000+0 0  9992
2 43432   0.0254 114.1321 0000247  91.3338 257.6928  1.00275440 30726
APSTAR-6C               
1 43450U 18041A   26243.77322883  .00000000  00000+0  00000+0 0  9995
2 43450   0.0153 308.8043 0001763 283.5111 160.0119  1.00270035 30561
BANGABANDHUSAT-1        
1 43463U 18044A   26243.94419838 -.00000359  00000+0  00000+0 0  9996
2 43463   0.0160 204.4124 0002688 329.2473 265.4750  1.00270910 30462
SES-12                  
1 43488U 18049A   26243.92753120  .00000000  00000+0  00000+0 0  9993
2 43488   0.0151 102.3874 0001943 136.7023 169.9224  1.00269179 30179
FENGYUN 2H              
1 43491U 18050A   26243.97628971 -.00000126  00000+0  00000+0 0  9999
2 43491   3.2182  78.1320 0002608 145.1991 187.5685  1.00273530 30190
BEIDOU-2 IGSO-7         
1 43539U 18057A   26243.69750490 -.00000113  00000+0  00000+0 0  9996
2 43539  55.2141 162.4196 0108097 236.7933 304.0777  1.00281286 29884
TELSTAR 19V             
1 43562U 18059A   26243.30657800 -.00000276  00000+0  00000+0 0  9993
2 43562   0.0145 179.8183 0002720 340.0566 226.9852  1.00274490 29893
TELKOM 4 (MERAH PUTIH)  
1 43587U 18064A   26243.94975311 -.00000340  00000+0  00000+0 0  9998
2 43587   0.0111 142.6488 0001661  51.4427 235.9503  1.00271307 29630
TELSTAR 18V             
1 43611U 18069A   26243.51364362 -.00000290  00000+0  00000+0 0  9996
2 43611   0.0408 293.7809 0001893 227.9318 140.9166  1.00272548 29399
AZERSPACE 2 (IS-38)     
1 43632U 18074A   26243.90461331  .00000000  00000+0  00000+0 0  9990
2 43632   0.0178 145.2392 0001393  29.8868 175.7206  1.00270619 29206
HORIZONS-3E             
1 43633U 18074B   26243.57829824 -.00000027  00000+0  00000+0 0  9999
2 43633   0.0112 195.5460 0000757 351.6660 169.7279  1.00272813 29096
AEHF-4 (USA 288)        
1 43651U 18079A   26243.87575595 -.00000271  00000+0  00000+0 0  9991
2 43651   1.4195 356.9044 0068592   1.9554 228.9357  1.00271794 29059
BEIDOU-3 G1             
1 43683U 18085A   26243.92099615 -.00000105  00000+0  00000+0 0  9999
2 43683   2.5785  95.2491 0006499  18.4474 358.0195  1.00272426 28824
GSAT-29                 
1 43698U 18089A   26243.90019604  .00000089  00000+0  00000+0 0  9997
2 43698   0.0821 270.1211 0001747 238.8447 210.1851  1.00270663 28544
ES'HAIL 2               
1 43700U 18090A   26243.75184514  .00000148  00000+0  00000+0 0  9995
2 43700   0.0338 260.6583 0002477 292.0679  83.6668  1.00274740 28434
GEO-KOMPSAT-2A          
1 43823U 18100A   26243.00169725  .00000000  00000+0  00000+0 0  9995
2 43823   0.0201 109.3380 0001753   6.8875 351.8379  1.00269640 28384
GSAT-11                 
1 43824U 18100B   26243.19093763 -.00000074  00000+0  00000+0 0  9996
2 43824   0.0824 269.8446 0006996 205.5710   6.7085  1.00272076 28232
GSAT-7A                 
1 43864U 18105A   26243.90175605  .00000030  00000+0  00000+0 0  9991
2 43864   0.0138 214.0402 0001880 317.5439 195.9174  1.00270273 28201
COSMOS 2533             
1 43867U 18107A   26243.61803122 -.00000035  00000+0  00000+0 0  9992
2 43867   0.0144 126.6160 0000287 176.9863 328.6989  1.00270982 28204
TJS-3                   
1 43874U 18110A   26243.73893655 -.00000083  00000+0  00000+0 0  9990
2 43874   2.7319  79.5194 0003863 133.2932 191.5308  1.00451988 28179
ZHONGXING-2D            
1 43920U 19001A   26243.98634310 -.00000333  00000+0  00000+0 0  9998
2 43920   0.0647 290.9973 0001130  18.3638 155.9119  1.00271889 54848
HELLAS-SAT 4 & SGS-1    
1 44034U 19007A   26243.54063755  .00000156  00000+0  00000+0 0  9994
2 44034   0.0626 128.8282 0006167  31.0428  53.4985  1.00272376 28136
GSAT-31                 
1 44035U 19007B   26243.90461331  .00000129  00000+0  00000+0 0  9997
2 44035   0.0495 277.7264 0003584 310.8784 124.9885  1.00271401 27723
NUSANTARA SATU          
1 44048U 19009A   26243.49697359 -.00000231  00000+0  00000+0 0  9993
2 44048   0.0236 136.5717 0004694   9.2120 158.8200  1.00271223 27528
ZHONGXING-6C            
1 44067U 19012A   26242.84588286 -.00000332  00000+0  00000+0 0  9996
2 44067   0.0463 328.7600 0014338  93.2075 351.9997  1.00269397 27488
WGS 10 (USA 291)        
1 44071U 19014A   26243.40217176  .00000050  00000+0  00000+0 0  9999
2 44071   0.0067 137.0346 0000296 152.2503 255.4078  1.00270654 27375
TIANLIAN 2-01           
1 44076U 19017A   26243.93308615 -.00000103  00000+0  00000+0 0  9994
2 44076   0.7278  82.6838 0002999 117.0994 193.2541  1.00271454 27404
ARABSAT-6A              
1 44186U 19021A   26243.75279847  .00000157  00000+0  00000+0 0  9993
2 44186   0.0589 328.1809 0005551 286.9457  26.3140  1.00262129 26912
BEIDOU-3 IGSO-1         
1 44204U 19023A   26240.34823663 -.00000187  00000+0  00000+0 0  9993
2 44204  58.7997  36.9119 0027056 222.6066 321.7076  1.00270870  7934
BEIDOU-2 G8             
1 44231U 19027A   26243.84663581 -.00000243  00000+0  00000+0 0  9999
2 44231   1.8426  74.3679 0008969 282.1547  72.7614  1.00276083 26837
YAMAL 601               
1 44307U 19031A   26243.97030969  .00000123  00000+0  00000+0 0  9996
2 44307   0.0094 137.2670 0002302  21.0375 220.1537  1.00271893 26687
AT&T T-16               
1 44333U 19034A   26243.86934258 -.00000111  00000+0  00000+0 0  9998
2 44333   0.0140 111.1233 0000276 324.5336 116.4981  1.00269086 26399
EUTELSAT 7C             
1 44334U 19034B   26243.60555117  .00000052  00000+0  00000+0 0  9997
2 44334   0.0740 179.6507 0003244 328.2679  56.8666  1.00270701  7592
BEIDOU-3 IGSO-2         
1 44337U 19035A   26241.71502684 -.00000141  00000+0  00000+0 0  9992
2 44337  55.2506 158.2181 0038917 211.5634 345.2616  1.00278019 26409
COSMOS 2539             
1 44457U 19048A   26243.53517752  .00000085  00000+0  00000+0 0  9999
2 44457   0.0138 118.5766 0000475 158.5868 267.2254  1.00273006 25980
EDRS-C                  
1 44475U 19049A   26243.88239458 -.00000258  00000+0  00000+0 0  9995
2 44475   0.0129 167.5298 0001208   6.5319 266.1615  1.00271494 25968
INTELSAT 39 (IS-39)     
1 44476U 19049B   26243.18877095  .00000000  00000+0  00000+0 0  9998
2 44476   0.0184 151.4918 0000118 314.7957   2.9844  1.00269991 25882
AMOS-17                 
1 44479U 19050A   26243.75011179  .00000113  00000+0  00000+0 0  9994
2 44479   0.0250 353.5619 0001560 168.4839 104.9048  1.00270970 25942
AEHF-5 (USA 292)        
1 44481U 19051A   26243.92753120 -.00000252  00000+0  00000+0 0  9991
2 44481   1.4003 342.2364 0063959 352.6947  72.1024  1.00267540 26024
EUTELSAT 5 WEST B       
1 44624U 19067A   26243.88832266 -.00000039  00000+0  00000+0 0  9994
2 44624   0.1011 304.7587 0003235 218.9710 131.1264  1.00271654 25180
MEV-1                   
1 44625U 19067B   26240.62423735 -.00000146  00000+0  00000+0 0  9990
2 44625   0.8646 268.1263 0004205 250.6949 198.8983  1.00271884 62297
TJS-4                   
1 44637U 19070A   26243.97715639 -.00000166  00000+0  00000+0 0  9997
2 44637   0.0114 130.4059 0002653 111.7442 173.3153  1.00270923 25295
BEIDOU-3 IGSO-3         
1 44709U 19073A   26243.50237293 -.00000156  00000+0  00000+0 0  9993
2 44709  54.6728 280.0769 0046840 197.7740 162.1531  1.00267582 25217
TIBA-1                  
1 44800U 19080A   26243.89629603  .00000159  00000+0  00000+0 0  9997
2 44800   0.0561 334.6772 0002441 199.5961 163.9824  1.00274768 24805
INMARSAT GX5            
1 44801U 19080B   26243.95600319  .00000078  00000+0  00000+0 0  9998
2 44801   0.0461 355.3320 0001905 176.3583 163.6158  1.00271176  7540
JCSAT-18 (KACIFIC 1)    
1 44868U 19091A   26243.84767582  .00000000  00000+0  00000+0 0  9992
2 44868   0.0168 274.3266 0000440 334.7191 186.1187  1.00269528 24767
ELEKTRO-L 3             
1 44903U 19095A   26243.97559638 -.00000093  00000+0  00000+0 0  9994
2 44903   0.4444  82.5556 0001469  58.7083 266.0496  1.00271222 24466
SHIJIAN-20 (SJ-20)      
1 44910U 19097A   26243.25576457  .00000152  00000+0  00000+0 0  9998
2 44910   5.1053  74.1001 0003004 170.7421 227.1014  1.00279751 24450
TJS-5                   
1 44978U 20002A   26243.79628150 -.00000339  00000+0  00000+0 0  9995
2 44978   0.1810  83.4416 0007693 347.2121 303.4984  1.00271945 24461
GSAT-30                 
1 45026U 20005A   26243.93308615 -.00000162  00000+0  00000+0 0  9994
2 45026   0.0368 262.4462 0002048 218.1690 278.4524  1.00271566 24267
EUTELSAT KONNECT        
1 45027U 20005B   26243.89074934  .00000054  00000+0  00000+0 0  9993
2 45027   0.0632 101.9456 0002283 104.8181 101.2144  1.00272927 25094
JCSAT-17                
1 45245U 20013A   26243.76657131 -.00000311  00000+0  00000+0 0  9993
2 45245   5.3958 357.5474 0004431 172.8207 221.5330  1.00270674 23992
GEO-KOMPSAT-2B          
1 45246U 20013B   26243.88794929 -.00000340  00000+0  00000+0 0  9996
2 45246   0.0579 299.2564 0001459 287.3564 201.3771  1.00271785 24036
BEIDOU-3 G2             
1 45344U 20017A   26243.97637638 -.00000136  00000+0  00000+0 0  9995
2 45344   2.5556  48.1964 0002332 112.5143 250.9929  1.00271756 24027
AEHF-6 (USA 298)        
1 45465U 20022B   26243.91666279 -.00000295  00000+0  00000+0 0  9998
2 45465   2.3926 302.1963 0042041  11.1342 134.4682  1.00275309 23779
BEIDOU-3 G3             
1 45807U 20040A   26243.98244308 -.00000350  00000+0  00000+0 0  9992
2 45807   2.6268  67.4293 0002516 293.6923  83.2266  1.00276200 22839
APSTAR-6D               
1 45863U 20045A   26243.91562279 -.00000314  00000+0  00000+0 0  9992
2 45863   0.0394 105.6424 0002534 345.0015 353.0948  1.00270498 22612
KOREASAT 116            
1 45920U 20048A   26243.94419838  .00000000  00000+0  00000+0 0  9995
2 45920   0.0124 156.5727 0000948  16.5040 263.1647  1.00270658 22393
EXPRESS 103             
1 45985U 20053A   26243.97966973 -.00000277  00000+0  00000+0 0  9999
2 45985   0.0449 279.1988 0001181 271.2339 238.9189  1.00271953 22408
EXPRESS 80              
1 45986U 20053B   26244.04770337 -.00000132  00000+0  00000+0 0  9996
2 45986   0.0276 249.8693 0002330 157.4763  30.0394  1.00272664 22394
BSAT-4B                 
1 46112U 20056A   26243.69715823 -.00000346  00000+0  00000+0 0  9997
2 46112   0.0531 241.5207 0004242 271.9026 187.2561  1.00269913 22145
MEV-2                   
1 46113U 20056B   26243.88910266 -.00000007  00000+0  00000+0 0  9991
2 46113   0.0539 268.4246 0000337 336.1209  54.6023  1.00271863 81460
GALAXY 30 (G-30)        
1 46114U 20056C   26243.67232934  .00000000  00000+0  00000+0 0  9990
2 46114   0.0235 129.0591 0002446  46.2187 281.5956  1.00270712 22043
GAOFEN-13 01            
1 46610U 20071A   26243.98391642 -.00000359  00000+0  00000+0 0  9992
2 46610   0.0943  79.6641 0058958 122.2183 250.8961  1.00272385 21688
TIANTONG-1 2            
1 46916U 20082A   26243.98530309 -.00000352  00000+0  00000+0 0  9991
2 46916   0.7171 339.4893 0000961 219.5247 260.7813  1.00268147 21413
LUCAS (JDRS-1)          
1 47202U 20089A   26243.92753120 -.00000232  00000+0  00000+0 0  9996
2 47202   0.0633 276.4146 0001949 260.4069 227.9577  1.00274140 21178
SXM-7                   
1 47240U 20096A   26243.90044669 -.00000202  00000+0  00000+0 0  9992
2 47240   0.0128 126.3126 0003969 349.2611 103.5149  1.00270189  8205
CMS-01                  
1 47256U 20099A   26243.93308615 -.00000161  00000+0  00000+0 0  9993
2 47256   0.0059 139.5252 0004595 115.4089 144.0874  1.00271990 20951
TURKSAT 5A              
1 47306U 21001A   26243.75288514  .00000158  00000+0  00000+0 0  9993
2 47306   0.0138 108.8047 0000068  93.3384  79.7578  1.00271064 20721
TIANTONG-1 3            
1 47321U 21003A   26243.97672306 -.00000151  00000+0  00000+0 0  9996
2 47321   1.7088 344.0460 0003366 188.6373 240.6389  1.00272272 20724
TJS-6                   
1 47613U 21010A   26243.85330918  .00000047  00000+0  00000+0 0  9998
2 47613   0.0685 257.0923 0003823 275.6582 292.9706  1.00272621 20560
SBIRS GEO-5 (USA 315)   
1 48618U 21042A   26243.76525545 -.00000264  00000+0  00000+0 0  9993
2 48618   5.0144 329.6882 0001952 202.1738 177.3717  1.00271687 19534
FENGYUN 4B              
1 48808U 21047A   26243.98131641 -.00000327  00000+0  00000+0 0  9993
2 48808   0.3364  81.0750 0007581 274.0252  83.0563  1.00272108 19321
SXM-8                   
1 48838U 21049A   26243.58735109 -.00000202  00000+0  00000+0 0  9995
2 48838   0.0197  65.7458 0005544 330.5669  69.7602  1.00272383 19348
TIANLIAN 1-05           
1 49011U 21063A   26243.89265601  .00000111  00000+0  00000+0 0  9992
2 49011   1.7815  79.9444 0003103 131.8833 106.3819  1.00272382 18833
STAR ONE D2             
1 49055U 21069A   26243.87540927 -.00000261  00000+0  00000+0 0  9998
2 49055   0.0205 114.3294 0002689  53.1338  57.7337  1.00271083 18715
EUTELSAT QUANTUM        
1 49056U 21069B   26243.61361120  .00000000  00000+0  00000+0 0  9997
2 49056   0.0164 108.0785 0002316  65.3732  74.9496  1.00273665 18686
ZHONGXING-2E            
1 49062U 21071A   26243.92753120 -.00000288  00000+0  00000+0 0  9995
2 49062   0.0427 307.6093 0000485 258.6138 205.8620  1.00272810 18793
TJS-7                   
1 49115U 21077A   26243.94084289 -.00000120  00000+0  00000+0 0  9990
2 49115   0.1683 262.5333 0002030 109.0491 207.7686  1.00270431 10312
CHINASAT 9B             
1 49125U 21080A   26243.98062307 -.00000309  00000+0  00000+0 0  9995
2 49125   0.0113 190.1030 0003206 352.1576 252.3336  1.00272810 18400
SHIJIAN-21 (SJ-21)      
1 49330U 21094A   26243.96156249 -.00000343  00000+0  00000+0 0  9993
2 49330   5.2866  60.6639 0053633 171.0054 222.6568  1.00272733  6121
SES-17                  
1 49332U 21095A   26243.80468897 -.00000269  00000+0  00000+0 0  9991
2 49332   0.0258  58.9205 0001121 109.1348  34.5163  1.00269241 18611
SYRACUSE 4A             
1 49333U 21095B   26243.90461331  .00000139  00000+0  00000+0 0  9994
2 49333   0.0183 179.3858 0001505 333.9104 197.9546  1.00270974 18708
QZS-1R (MICHIBIKI-1R)   
1 49336U 21096A   26243.88239458 -.00000228  00000+0  00000+0 0  9998
2 49336  37.6161  78.4640 0742283 269.6695  82.9583  1.00292030 17773
ZHONGXING-1D            
1 49505U 21114A   26243.98634310 -.00000332  00000+0  00000+0 0  9990
2 49505   0.0071 136.0934 0000880 165.2077 164.1400  1.00273528 17588
STPSAT-6                
1 49817U 21118A   26243.58863803 -.00000041  00000+0  00000+0 0  9994
2 49817   0.5080  84.5058 0000973 204.1827 151.0950  1.00271527 17326
EXPRESS AMU-7           
1 50001U 21123A   26243.56161096 -.00000239  00000+0  00000+0 0  9999
2 50001   0.0438 281.2768 0000208 318.4932  87.1625  1.00272792 17295
EXPRESS AMU-3           
1 50002U 21123B   26243.76959045 -.00000318  00000+0  00000+0 0  9999
2 50002   0.0326 251.7431 0000995 351.2364 117.0204  1.00272926  7786
TIANLIAN 2-02           
1 50005U 21124A   26243.85183584 -.00000011  00000+0  00000+0 0  9990
2 50005   0.9894  84.8400 0003250 149.1769 223.6385  1.00271756 17380
TURKSAT 5B              
1 50212U 21126A   26243.54115755  .00000149  00000+0  00000+0 0  9994
2 50212   0.0734 329.0035 0001642 340.0679 267.4721  1.00272274 17057
INMARSAT 6-F1           
1 50319U 21128A   26243.33552480 -.00000168  00000+0  00000+0 0  9993
2 50319   0.0186 124.9908 0000343 101.1653 317.9239  1.00270189 17016
SHIYAN-12 01 (SY-12 01) 
1 50321U 21129A   26243.61031786  .00000159  00000+0  00000+0 0  9998
2 50321   3.8616  78.8496 0001602 169.5664 342.1742  1.00469191 17254
SHIYAN-12 02 (SY-12 02) 
1 50322U 21129B   26243.67555634 -.00000216  00000+0  00000+0 0  9993
2 50322   3.8602  78.8416 0003572  90.2151 197.4474  1.00454320 17252
TJS-9                   
1 50574U 21135A   26243.98772977 -.00000296  00000+0  00000+0 0  9992
2 50574   0.0414 269.2751 0004411  86.3600 117.3073  1.00268650 17195
GOES 18                 
1 51850U 22021A   26243.71960500  .00000100  00000+0  00000+0 0  9990
2 51850   0.0486 316.5594 0000636 270.3586 235.0459  1.00270301  7355
ZHONGXING-6D            
1 52255U 22038A   26242.71113139 -.00000350  00000+0  00000+0 0  9993
2 52255   0.0177 143.7038 0001730  84.7936 131.4963  1.00270228 16174
NILESAT 301             
1 52817U 22061A   26243.60277782 -.00000053  00000+0  00000+0 0  9997
2 52817   0.0537 357.0152 0001633 121.8034  71.0138  1.00273714 15499
CMS-02 (GSAT-24)        
1 52903U 22067A   26243.93308615 -.00000161  00000+0  00000+0 0  9995
2 52903   0.0580 269.9096 0001717   3.1058 126.0182  1.00270599 15366
MEASAT 3D               
1 52904U 22067B   26243.12333733  .00000000  00000+0  00000+0 0  9997
2 52904   0.0123 324.1186 0001368 273.8122 237.2901  1.00268488 15407
SES-22                  
1 52933U 22071A   26243.71917167  .00000108  00000+0  00000+0 0  9997
2 52933   0.0484 286.0649 0001050 239.5119 294.2408  1.00273622  8281
WFOV (USA 332)          
1 52940U 22073A   26243.94419838 -.00000358  00000+0  00000+0 0  9992
2 52940   3.8977  77.5187 0002659 165.1863 196.6208  1.00274766 15138
TIANLIAN 2-03           
1 53100U 22078A   26243.32113808  .00000075  00000+0  00000+0 0  9991
2 53100   0.8578  77.7805 0001104 122.8982 264.9998  1.00271319 15301
SBIRS GEO-6 (USA 336)   
1 53355U 22092A   26243.87282020 -.00000288  00000+0  00000+0 0  9999
2 53355   3.1382 318.7771 0001937 205.8947 268.5917  1.00271208 14991
EUTELSAT KONNECT VHTS   
1 53765U 22110A   26243.88979600  .00000020  00000+0  00000+0 0  9996
2 53765   0.0536 104.3040 0002959  31.8155 166.9764  1.00269384  7595
ZHONGXING-1E            
1 53813U 22112A   26243.97672306 -.00000146  00000+0  00000+0 0  9995
2 53813   0.0169 157.1335 0002444  95.9697 160.0844  1.00270218 14607
SES-20                  
1 53960U 22123A   26243.86890925 -.00000097  00000+0  00000+0 0  9992
2 53960   0.0156  95.4984 0001774  11.7113  82.5434  1.00270540 14290
SES-21                  
1 53961U 22123B   26243.62825538  .00000073  00000+0  00000+0 0  9998
2 53961   0.0298  62.6106 0000995  95.3073 277.0643  1.00270013  7961
GALAXY 33 (G-33)        
1 54026U 22128A   26243.82948924  .00000082  00000+0  00000+0 0  9993
2 54026   0.0279 312.1161 0001876 209.5337 343.9828  1.00271491 14505
GALAXY 34 (G-34)        
1 54027U 22128B   26243.72116501  .00000000  00000+0  00000+0 0  9991
2 54027   0.0188 162.7106 0001892  14.3472 293.4625  1.00274627 14679
ANGOSAT 2               
1 54033U 22131A   26243.96510966  .00000000  00000+0  00000+0 0  9991
2 54033   0.0191 146.1043 0001023 137.5901  66.8802  1.00272105 14237
EUTELSAT HOTBIRD 13F    
1 54048U 22134A   26243.82054903  .00000091  00000+0  00000+0 0  9999
2 54048   0.0602 292.6265 0001862  66.9610 288.8052  1.00271857 14131
LDPE-2                  
1 54219U 22144A   26243.41846943 -.00000319  00000+0  00000+0 0  9992
2 54219   5.7751  62.8981 0001750 115.6427  94.0210  0.99592263 12599
EUTELSAT HOTBIRD 13G    
1 54225U 22146A   26243.74933179  .00000091  00000+0  00000+0 0  9991
2 54225   0.0527 237.2623 0002187 304.0470  81.3863  1.00272206  8226
ZHONGXING-19            
1 54230U 22148A   26243.92160281 -.00000078  00000+0  00000+0 0  9991
2 54230   0.0562 268.1671 0004473 266.0254 300.8410  1.00271739 14149
GALAXY 31 (G-31)        
1 54243U 22153A   26243.79244654  .00000017  00000+0  00000+0 0  9995
2 54243   0.0258 234.0168 0001275 289.6949 340.5374  1.00271241  7899
GALAXY 32 (G-32)        
1 54244U 22153B   26243.95903935  .00000000  00000+0  00000+0 0  9990
2 54244   0.0132 126.7090 0000122 287.0055 180.6735  1.00269325 13905
EUTELSAT 10B            
1 54259U 22157A   26243.82002903  .00000072  00000+0  00000+0 0  9990
2 54259   0.0555 101.8508 0000828 340.3977 203.0009  1.00272426 13783
GALAXY 35 (G-35)        
1 54741U 22170A   26243.90600183 -.00000159  00000+0  00000+0 0  9991
2 54741   0.0148 118.6995 0002051  47.6217  46.8296  1.00271788 13654
GALAXY 36 (G-36)        
1 54742U 22170B   26243.87168259 -.00000182  00000+0  00000+0 0  9997
2 54742   0.0150 161.4754 0002081 325.1247  78.2615  1.00271378 13533
METEOSAT-12 (MTG-I1)    
1 54743U 22170C   26243.88918933 -.00000005  00000+0  00000+0 0  9995
2 54743   0.7621  24.3454 0003858  89.2521 186.1951  1.00268861 13731
SHIJIAN-23 (SJ-23)      
1 55131U 23002A   26243.62227791 -.00000188  00000+0  00000+0 0  9991
2 55131   3.9039  77.3240 0002879 228.1446 350.0704  1.00026832 13260
APSTAR-6E               
1 55239U 23005A   26243.91562279 -.00000314  00000+0  00000+0 0  9999
2 55239   0.0547 256.1594 0003410 306.0178 241.5500  1.00271794 19454
USA 342                 
1 55263U 23008A   26242.18327360  .00000000  00000+0  00000+0 0  9998
2 55263   0.0043 157.5597 0000553  64.6775 205.9764  1.00270462 13253
ELEKTRO-L 4             
1 55506U 23016A   26243.59558274  .00000000  00000+0  00000+0 0  9993
2 55506   0.0207  53.7898 0002203 133.3838 172.8232  1.00271287 13094
AMAZONAS NEXUS          
1 55508U 23017A   26243.52079079 -.00000279  00000+0  00000+0 0  9999
2 55508   0.0376  41.4394 0003134  82.3352 342.4221  1.00270728  7800
ZHONGXING-26            
1 55686U 23023A   26243.62895126 -.00000350  00000+0  00000+0 0  9993
2 55686   0.0560  74.0897 0002445  50.6351 206.5951  1.00269149 12983
LUCH-5X (OLYMP-K 2)     
1 55841U 23031A   26243.61647122  .00000036  00000+0  00000+0 0  9995
2 55841   0.0193 110.0921 0000724 354.6555 158.9690  1.00274163 12698
GAOFEN-13 02            
1 55912U 23036A   26243.70478493 -.00000214  00000+0  00000+0 0  9991
2 55912   0.9954  10.4271 0003576 308.3636  63.0959  1.00270773 12851
SES-18                  
1 55970U 23038A   26243.86890925 -.00000098  00000+0  00000+0 0  9992
2 55970   0.0593 278.5287 0001878 297.4871 333.7438  1.00272764 12863
SES-19                  
1 55971U 23038B   26243.51374140  .00000091  00000+0  00000+0 0  9993
2 55971   0.0596 282.4955 0001785 241.4275 225.8301  1.00269924 12849
INTELSAT 40E (IS-40E)   
1 56174U 23052A   26243.87124926 -.00000171  00000+0  00000+0 0  9999
2 56174   0.0090 174.2982 0002696   2.3982  26.0091  1.00271407 12580
VIASAT-3 F1             
1 56370U 23060A   26243.51524410  .00000000  00000+0  00000+0 0  9999
2 56370   0.0139 161.0165 0000932  27.6940 247.4807  1.00269487 12189
ARCTURUS                
1 56371U 23060B   26243.05761047 -.00000358  00000+0  00000+0 0  9995
2 56371   2.9616  78.9742 0000642 213.9980 186.7908  1.00271626 12219
GS-1                    
1 56372U 23060C   26240.01362654 -.00000204  00000+0  00000+0 0  9990
2 56372   2.9049  78.9290 0003008 273.9209  75.8665  1.00255074  8253
BEIDOU-3 G4             
1 56564U 23066A   26243.98824977 -.00000277  00000+0  00000+0 0  9999
2 56564   0.4402 352.7938 0005237 199.4925 283.6574  1.00275128 12151
ARABSAT-7B (BADR-8)     
1 56757U 23075A   26243.53803752  .00000148  00000+0  00000+0 0  9998
2 56757   0.0776  26.7724 0001858 358.1739 174.4765  1.00272707 11875
NVS-01 (IRNSS-1J)       
1 56759U 23076A   26243.88794929 -.00000334  00000+0  00000+0 0  9992
2 56759   1.9950 240.9003 0004671 358.4769 189.9173  1.00270224 11879
NUSANTARA TIGA (SATRIA) 
1 57045U 23086A   26242.99139685 -.00000231  00000+0  00000+0 0  9991
2 57045   0.0451   4.8123 0002584 304.4853 172.7976  1.00273537 10511
H2SAT (HEINRICH HERTZ)  
1 57213U 23093A   26243.05560241  .00000000  00000+0  00000+0 0  9993
2 57213   0.0259  68.2214 0000683  53.7548 238.0304  1.00269191 11672
SYRACUSE 4B             
1 57214U 23093B   26243.07555978 -.00000050  00000+0  00000+0 0  9993
2 57214   0.0114 127.4653 0000179 103.0874 129.4548  1.00272214  7723
JUPITER 3 (ECHOSTAR 24) 
1 57479U 23108A   26243.32140756 -.00000146  00000+0  00000+0 0  9991
2 57479   0.0156 116.3155 0001169  38.4904 205.2094  1.00271795 11391
GALAXY 37 (G-37)        
1 57493U 23112A   26243.55479387  .00000000  00000+0  00000+0 0  9990
2 57493   0.0222 136.4996 0002060  44.5716 231.3823  1.00271378 11293
LUDI TANCE-4 01A        
1 57624U 23120A   26241.81439950 -.00000187  00000+0  00000+0 0  9991
2 57624  15.0591 192.1665 0003365  32.9160 135.6781  1.00266879 11287
TJS-10                  
1 58204U 23169A   26243.62245124 -.00000244  00000+0  00000+0 0  9992
2 58204   2.7311  79.5271 0004912 126.6622  90.0234  1.00266738 10290
ZHONGXING-6E            
1 58253U 23172A   26243.98348308 -.00000358  00000+0  00000+0 0  9993
2 58253   0.0201 217.5680 0002541 304.2284 287.9282  1.00268587 10413
YAOGAN-41               
1 58582U 23197A   26243.98495642 -.00000359  00000+0  00000+0 0  9990
2 58582   2.9984 314.3870 0014245 210.5612 292.8971  1.00274328 10085
OVZON-3                 
1 58698U 24003A   26243.40208509  .00000055  00000+0  00000+0 0  9998
2 58698   0.0140 163.9665 0000078 304.8423  75.2350  1.00272827  8209
INSAT-3DS               
1 58990U 24033A   26243.93308615 -.00000152  00000+0  00000+0 0  9992
2 58990   0.0711 265.2162 0001412 280.2925 212.6153  1.00270607 47826
MERAH PUTIH 2           
1 58995U 24035A   26243.94975311 -.00000354  00000+0  00000+0 0  9997
2 58995   0.0111 149.3862 0001232  25.8960 259.7130  1.00271496  9345
TJS-11                  
1 59020U 24037A   26243.76898213 -.00000359  00000+0  00000+0 0  9999
2 59020   4.1059 328.0292 0002067 256.9277 144.4013  1.00273121  9346
HULIANWAN GAOGUI-01 (H*)
1 59069U 24040A   26243.82470905  .00000159  00000+0  00000+0 0  9994
2 59069   0.0873 333.7587 0001172  50.7546 286.0166  1.00272099  8088
EUTELSAT 36D            
1 59346U 24059A   26243.89638270  .00000159  00000+0  00000+0 0  9990
2 59346   0.0067 111.0261 0000221 152.2063  75.4045  1.00271390  8903
PAKSAT-MM1              
1 59915U 24104A   26243.46905057  .00000157  00000+0  00000+0 0  9994
2 59915   0.0356 220.3722 0001898 311.8100  14.5362  1.00274288  8284
ASTRA 1P (SES-24)       
1 60086U 24115A   26243.32287141  .00000123  00000+0  00000+0 0  9992
2 60086   0.0677 323.0479 0002433 254.3873 257.5124  1.00272480  7955
GOES 19                 
1 60133U 24119A   26243.87436927 -.00000245  00000+0  00000+0 0  9993
2 60133   0.0449 304.3083 0000592 300.3904 334.9375  1.00272178  7726
ZHONGXING-3A            
1 60179U 24122A   26243.87614152  .00000000  00000+0  00000+0 0  9993
2 60179   0.0160 108.3922 0002676  96.8517 191.7794  1.00269990  8062
TURKSAT 6A              
1 60233U 24127A   26243.90461331  .00000150  00000+0  00000+0 0  9998
2 60233   0.0358 220.7756 0004477 330.9347 156.0424  1.00273847  7777
HULIANWAN GAOGUI-02 (H*)
1 60327U 24135A   26243.91960947 -.00000170  00000+0  00000+0 0  9992
2 60327   0.0606 339.0132 0004806  19.1056 106.1796  1.00269027  8255
ZHONGXING-4A            
1 60606U 24151A   26243.94419838 -.00000360  00000+0  00000+0 0  9992
2 60606   1.1261 270.0999 0000756  10.6454 157.5022  1.00274240  7510
HULIANWAN GAOGUI-03 (H*)
1 61503U 24181A   26243.94526292 -.00000237  00000+0  00000+0 0  9998
2 61503   0.0672 344.5781 0000751 121.7508 136.9074  1.00266267  7581
DSN-3 (KIRAMEKI-3)      
1 61733U 24198A   26243.88239458 -.00000246  00000+0  00000+0 0  9999
2 61733   0.0140 150.1018 0001413  16.2663 275.4212  1.00272241  6677
KOREASAT 6A             
1 61910U 24206A   26243.94419838 -.00000358  00000+0  00000+0 0  9999
2 61910   0.0106 148.6143 0000978  11.2710 276.1567  1.00271604  6594
OPTUS-X (ADS-01)        
1 62006U 24212A   26243.85059650 -.00000140  00000+0  00000+0 0  9994
2 62006   0.0484 283.3838 0002570 241.8872 277.3843  1.00271482  6514
GSAT-N2 (GSAT-20)       
1 62028U 24214A   26243.90270939 -.00000016  00000+0  00000+0 0  9993
2 62028   0.0463 269.0278 0001539 112.5879 351.3692  1.00271902  6656
SXM-9                   
1 62259U 24234A   26243.87237593 -.00000202  00000+0  00000+0 0  9993
2 62259   0.0167 319.6811 0004539 355.5219 253.7472  1.00271250  6330
TJS-12                  
1 62374U 24246A   26243.91830947 -.00000227  00000+0  00000+0 0  9998
2 62374   0.5207 308.9028 0001290 144.3302   4.0184  1.00272320  6322
NUVIEW ALPHA            
1 62455U 24252B   26243.87280927 -.00000211  00000+0  00000+0 0  9990
2 62455   0.0485   8.9516 0000149 117.4717  84.7192  1.00269669  4589
AGILA                   
1 62456U 24252C   26243.85059650 -.00000178  00000+0  00000+0 0  9998
2 62456   0.0344 220.4672 0001298 334.5410 243.4014  1.00273064  5915
NUVIEW BRAVO            
1 62457U 24252D   26243.87280927 -.00000212  00000+0  00000+0 0  9993
2 62457   0.0632 167.8133 0001837  21.5686  21.7807  1.00271391  4556
THURAYA-4               
1 62483U 25001A   26243.25654458  .00000143  00000+0  00000+0 0  9993
2 62483   0.0149 104.0262 0000426  79.0656 293.0095  1.00273105  4932
SHIJIAN-25 (SJ-25)      
1 62485U 25002A   26243.41552274 -.00000345  00000+0  00000+0 0  9992
2 62485   5.2863  60.6468 0048639 179.2499  16.6540  1.00272368  6111
TJS-14                  
1 62804U 25017A   26243.96424299  .00000118  00000+0  00000+0 0  9995
2 62804   0.6237 302.6157 0003185 316.3784  86.6634  1.00270130  6039
SPAINSAT NG I           
1 62852U 25021A   26243.25351124  .00000000  00000+0  00000+0 0  9991
2 62852   0.0182 131.7606 0000288  77.9004 250.0279  1.00272093  4749
QZS-6 (MICHIBIKI-6)     
1 62876U 25023A   26243.92753120 -.00000230  00000+0  00000+0 0  9991
2 62876   0.0179  86.2611 0001646  90.9322 227.3215  1.00273291  5703
ZHONGXING-10R           
1 63075U 25036A   26243.94975311 -.00000348  00000+0  00000+0 0  9997
2 63075   0.0575 249.4293 0004903 286.1904 256.9262  1.00268878  5714
TJS-15                  
1 63157U 25045A   26243.62219123 -.00000196  00000+0  00000+0 0  9996
2 63157   0.3961  85.0946 0001327 142.6291  67.0002  1.00096788  5518
TIANLIAN 2-04           
1 63361U 25062A   26243.97646304 -.00000134  00000+0  00000+0 0  9997
2 63361   4.1876 273.3815 0032514   7.8275 130.5365  1.00271528  5363
TJS-16                  
1 63397U 25064A   26243.62998111 -.00000101  00000+0  00000+0 0  9990
2 63397   1.2851  80.8416 0001586 256.8602  29.5083  1.00273088  5149
TJS-17                  
1 63524U 25073A   26243.69168735 -.00000066  00000+0  00000+0 0  9990
2 63524   1.2513  81.9151 0000936 168.5662 142.9604  1.00270376  5042
TIANLIAN 2-05           
1 63662U 25084A   26243.89326267  .00000126  00000+0  00000+0 0  9999
2 63662   4.2669 279.0033 0001464 195.6984 207.2718  1.00271382  5144
TJS-19                  
1 63924U 25097A   26243.62983902 -.00000273  00000+0  00000+0 0  9994
2 63924   3.1675 318.7188 0006112 263.3248 125.7244  1.00269303  4904
CHINASAT 3B             
1 64062U 25106A   26243.92238281 -.00000042  00000+0  00000+0 0  9999
2 64062   0.0352 288.2797 0002072 246.8547 304.3347  1.00271256  4822
SXM-10                  
1 64290U 25122A   26243.58119772 -.00000013  00000+0  00000+0 0  9993
2 64290   0.0170  50.6481 0001611 303.0254  79.1600  1.00270879  4439
COSMOS 2589             
1 64467U 25131A   26243.62652457 -.00000358  00000+0  00000+0 0  9998
2 64467   0.1220  93.4359 0000904 300.8824 283.9964  1.00365172  4319
CHINASAT 9C             
1 64470U 25132A   26243.92753120 -.00000244  00000+0  00000+0 0  9999
2 64470   0.0451 253.9023 0003292 267.9689 244.3677  1.00272228  4900
MTG-S1                  
1 64723U 25143A   26243.88927600 -.00000003  00000+0  00000+0 0  9996
2 64723   0.5979 345.5244 0003870 251.6574  62.6835  1.00273658  4173
DROR 1                  
1 64784U 25148A   26243.88849600 -.00000031  00000+0  00000+0 0  9992
2 64784   0.0203  94.3602 0000417  81.8391 119.7044  1.00271073  4058
SHIYAN-29               
1 65486U 25196A   26243.83675576 -.00000261  00000+0  00000+0 0  9994
2 65486  28.9015  17.5839 0014765 181.0460 177.1269  1.00261602  3635
NUSANTARA LIMA (NUSANT*)
1 65588U 25205A   26243.34141816  .00000000  00000+0  00000+0 0  9999
2 65588   0.0097 135.6322 0000661 107.3802 332.2687  1.00269721  3479
TJS-20                  
1 66142U 25238A   26243.83034241  .00000027  00000+0  00000+0 0  9998
2 66142   5.3077 299.2710 0003741 227.1502 174.9021  1.00272600  3091
CMS-03 (GSAT-7R)        
1 66311U 25249B   26243.90392273 -.00000073  00000+0  00000+0 0  9990
2 66311   0.0124 115.9473 0001579  34.1604 229.3641  1.00271876  3109
VIASAT-3 F2             
1 66454U 25261A   26243.90044669 -.00000230  00000+0  00000+0 0  9990
2 66454   0.0054 213.9379 0000801  50.6263 320.6981  1.00270665  3550
SHIJIAN-28 (SJ-28)      
1 66549U 25277A   26243.89350145 -.00000359  00000+0  00000+0 0  9991
2 66549   4.3501 270.9561 0001246  47.4884 100.0771  1.00267667  2916
TJS-22                  
1 66990U 25290A   26243.90244939 -.00000004  00000+0  00000+0 0  9998
2 66990   1.3518 287.8626 0004079 321.1163 122.4527  1.00270985  2788
TJS-23                  
1 67226U 25306A   26243.39441056  .00000018  00000+0  00000+0 0  9995
2 67226   5.4218 297.1190 0004372 238.4707 121.4378  1.00270703  2649
FENGYUN 4C              
1 67246U 25312A   26243.55918428 -.00000319  00000+0  00000+0 0  9999
2 67246   0.0122 323.0489 0000722 287.8277  63.1722  1.00271279  2623
SHIJIAN-29A (SJ-29A)    
1 67302U 25315A   26243.97282027 -.00000067  00000+0  00000+0 0  9990
2 67302   3.5828  93.2764 0006145  75.8991 234.6004  1.00273067  2379
SHIJIAN-29B (SJ-29B)    
1 67403U 25315C   26243.97282027 -.00000067  00000+0  00000+0 0  9992
2 67403   3.5819  93.2721 0006780  82.6733 227.8710  1.00272419  2445
ELEKTRO-L 5             
1 67756U 26028A   26243.84430666 -.00000094  00000+0  00000+0 0  9995
2 67756   0.1777 358.8301 0002376 160.5299 200.6597  1.00271112  2009
JAM-E JAM 1             
1 67757U 26028B   26243.89603602  .00000159  00000+0  00000+0 0  9994
2 67757   0.1525 345.8288 0000794 226.2557 124.5430  1.00274708  1878
ECHOSTAR 25             
1 68126U 26045A   26243.54428669  .00000000  00000+0  00000+0 0  9999
2 68126   0.0227 128.7777 0001505  41.2651 255.6239  1.00269480  1749
TJS-24                  
1 69235U 26116A   26243.92753120 -.00000228  00000+0  00000+0 0  9998
2 69235   0.1967  89.9989 0001159 155.7600 158.5835  1.00273118   987
