ATLAS CENTAUR 2         
1 00694U 63047A   26243.47367569  .00001666  00000+0  18954-3 0  9991
2 00694  30.3551 298.3234 0545212 181.5201 178.3730 14.12647856156359
THOR AGENA D R/B        
1 00733U 64002A   26243.99758147  .00000068  00000+0  41545-4 0  9998
2 00733  99.1148 266.8167 0033843 107.6357 252.8526 14.34090611263429
SL-3 R/B                
1 00877U 64053B   26243.87736511  .00000061  00000+0  36141-4 0  9990
2 00877  65.0767 177.5758 0077873 237.1741 122.1844 14.61458293292392
SL-8 R/B                
1 02802U 67045B   26243.85833805  .00000168  00000+0  54188-4 0  9995
2 02802  74.0123  20.9174 0064525 345.2095  14.7173 14.45714188114332
SL-8 R/B                
1 03230U 68040B   26243.94744735  .00002247  00000+0  16410-3 0  9995
2 03230  74.0316 315.3092 0022683  87.2278 273.1507 15.04156559116351
OAO 2                   
1 03597U 68110A   26243.66195259  .00000129  00000+0  39799-4 0  9992
2 03597  34.9947   8.2469 0005218 167.9745 192.1071 14.47375814 44469
ISIS 1                  
1 03669U 69009A   26243.69586495  .00000183  00000+0  11323-3 0  9991
2 03669  88.4426 136.1125 1707679  95.7887 283.9450 11.30445285368302
SERT 2                  
1 04327U 70009A   26243.80404802 -.00000003  00000+0  52424-4 0  9999
2 04327  99.2854 177.4618 0005835  79.0491 336.0674 13.58744356803679
SL-3 R/B                
1 05118U 71028B   26243.92421361  .00067724  00000+0  40170-3 0  9998
2 05118  81.2302 193.0246 0011077  34.2406 325.9567 15.77705824 16159
ASTEX 1                 
1 05560U 71089A   26243.86855795  .00000259  00000+0  65773-4 0  9998
2 05560  92.7072 208.2492 0014273 204.9600 155.0917 14.50902535887702
SL-8 R/B                
1 05730U 71119B   26243.89078676  .00004294  00000+0  22184-3 0  9990
2 05730  73.8851 207.4868 0539104 138.0549 226.3243 14.40227026680695
OAO 3 (COPERNICUS)      
1 06153U 72065A   26243.74719830  .00000231  00000+0  51594-4 0  9994
2 06153  35.0068  19.8541 0006213 158.6806 346.4457 14.60095984871794
ATLAS CENTAUR R/B       
1 06155U 72065B   26243.59954277  .00000650  00000+0  91240-4 0  9992
2 06155  35.0028   0.3957 0033111  41.8623 318.4602 14.78027243867153
SL-8 R/B                
1 08459U 75112B   26243.85739982  .00000184  00000+0  68869-4 0  9993
2 08459  74.0594  56.6591 0014698 104.4892 255.7894 14.38274084657059
SL-3 R/B                
1 10114U 77057B   26243.94828159  .00008977  00000+0  16590-3 0  9990
2 10114  97.5878  64.2610 0007069  18.5933 341.5574 15.49292326695432
SEASAT 1                
1 10967U 78064A   26243.70104847  .00000104  00000+0  67443-4 0  9998
2 10967 108.0100 132.8043 0001832 302.4061  57.6907 14.46280906531818
SL-14 R/B               
1 11267U 79011B   26243.62234904  .00000316  00000+0  28575-4 0  9992
2 11267  82.5228 290.5717 0015711 187.3855 172.7136 14.92070289554866
SL-8 R/B                
1 11574U 79089B   26243.87244833  .00000118  00000+0  43582-4 0  9992
2 11574  74.0688 126.7517 0016776 254.7020 105.2282 14.42432045461368
SL-14 R/B               
1 11672U 80005B   26243.81786134  .00000357  00000+0  33437-4 0  9993
2 11672  82.5163 141.1074 0014340 302.7977  57.1861 14.91087130502581
SL-8 R/B                
1 12139U 81003B   26243.94974405  .00011484  00000+0  27166-3 0  9999
2 12139  82.9369 127.2529 0239790 286.3048  71.1936 15.16913329341199
SL-3 R/B                
1 12465U 81046B   26243.96770888  .00008907  00000+0  18305-3 0  9990
2 12465  81.2272  78.6687 0017977 124.7816 235.5124 15.45647551465475
SL-3 R/B                
1 12904U 81103B   26243.89457672  .00003923  00000+0  16631-3 0  9990
2 12904  81.1610   7.6423 0013529  57.9711 302.2833 15.22811530999889
SL-3 R/B                
1 13068U 82013B   26243.90865200  .00002260  00000+0  93847-4 0  9993
2 13068  81.1751 315.1528 0020712 309.5079  50.4321 15.23230575431010
SL-3 R/B                
1 13154U 82039B   26243.87255045  .00001473  00000+0  86093-4 0  9993
2 13154  81.1514  13.6510 0031365 100.8363 259.6395 15.10865809408083
SL-3 R/B                
1 13403U 82079B   26243.91217590  .00003709  00000+0  14062-3 0  9992
2 13403  81.1491 345.8724 0022648 292.3235  67.5598 15.26380728404413
SL-14 R/B               
1 13553U 82092B   26243.77686421  .00000332  00000+0  34285-4 0  9999
2 13553  82.5713 337.5721 0021837  81.1468  35.8107 14.86795349354947
SL-3 R/B                
1 13819U 83010B   26243.77749227  .00011719  00000+0  20006-3 0  9995
2 13819  81.1026 146.7467 0015114 145.5327 214.6904 15.51042362385041
SL-3 R/B                
1 14208U 83075B   26243.97054299  .00008104  00000+0  19235-3 0  9995
2 14208  97.6119 255.6516 0018675 325.3650  34.6379 15.41810624357134
COSMOS 1536             
1 14699U 84013A   26243.66436394  .00004287  00000+0  16601-3 0  9990
2 14699  82.5427 293.6359 0014481  33.5830 326.6323 15.25804810299285
SL-14 R/B               
1 14820U 84027B   26243.82956478  .00000297  00000+0  31020-4 0  9999
2 14820  82.5383  80.7714 0019392 111.6193 248.7092 14.86103274273649
SL-8 R/B                
1 15483U 85006B   26243.65634878  .00000090  00000+0  38314-4 0  9995
2 15483  74.0455 299.1828 0018080 174.4222 304.7164 14.37861439179172
SL-12 R/B(2)            
1 15772U 85042D   26243.93107771  .00000000  00000+0  21488-4 0  9999
2 15772  71.1065  77.4862 0036321 215.6758 247.1910 14.22018897139309
SL-14 R/B               
1 15945U 85069B   26243.89520040  .00000317  00000+0  32958-4 0  9998
2 15945  82.5252 220.1560 0018070 336.6630  23.3765 14.86561240198864
SL-16 R/B               
1 16182U 85097B   26243.89608520  .00000139  00000+0  93546-4 0  9995
2 16182  71.0026 131.6900 0008213 334.3039 102.9019 14.16617931112044
SL-14 R/B               
1 16496U 86006B   26243.68837451  .00000418  00000+0  41210-4 0  9999
2 16496  82.5242  95.0613 0077534  53.1118 307.7172 14.87003773175213
COSMOS 1743             
1 16719U 86034A   26243.45584051  .00058027  00000+0  39996-3 0  9994
2 16719  82.5212 248.2593 0003220  69.3899 290.7710 15.74376570207606
SL-14 R/B               
1 16792U 86046B   26243.58511209  .00000254  00000+0  26315-4 0  9998
2 16792  82.4791 274.9357 0023372  13.8208 346.3643 14.85716723152375
SL-14 R/B               
1 16882U 86055B   26243.72808483  .00000315  00000+0  33282-4 0  9996
2 16882  82.5228 322.1165 0020329 111.4382  49.0619 14.85769548145354
AJISAI (EGS)            
1 16908U 86061A   26243.94484417 -.00000085  00000+0  88296-4 0  9993
2 16908  50.0083 274.4459 0011236  13.4620  54.6007 12.44517227489824
SL-14 R/B               
1 17567U 87024B   26243.62230172  .00000259  00000+0  26583-4 0  9990
2 17567  82.5267 288.3544 0019276  45.0506 315.2270 14.86259151114117
COSMOS 1833             
1 17589U 87027A   26243.64021957 -.00000295  00000+0 -13194-3 0  9993
2 17589  70.9210 318.2821 0027097 298.4295  61.4095 14.13057071 35035
SL-16 R/B               
1 17590U 87027B   26243.81157725  .00000276  00000+0  16065-3 0  9994
2 17590  71.0008 267.4661 0006618 231.3442 128.7090 14.17182263 40154
SL-14 R/B               
1 17912U 87038B   26243.77473435  .00000273  00000+0  28825-4 0  9993
2 17912  82.5024 131.8827 0017991 309.1089  50.8527 14.85490006105224
COSMOS 1844             
1 17973U 87041A   26243.77053497 -.00000036  00000+0  61771-5 0  9992
2 17973  70.9009  24.8728 0028768 121.6132 238.7803 14.14584418 28340
SL-14 R/B               
1 18153U 87055B   26243.92284569  .00000301  00000+0  31749-4 0  9996
2 18153  82.5017 183.8328 0021314 150.1566 210.0871 14.85752172 95950
COSMOS 1867             
1 18187U 87060A   26243.93214477 -.00000048  00000+0  19451-4 0  9996
2 18187  65.0105 175.9284 0018180 281.3207  78.5834 14.31522658 45024
SL-14 R/B               
1 18749U 88001B   26243.79533007  .00000284  00000+0  29898-4 0  9990
2 18749  82.5131  30.6211 0018582  23.8315 336.3758 14.85652387 68020
COSMOS 1933             
1 18958U 88020A   26243.92835579  .00002160  00000+0  10138-3 0  9998
2 18958  82.5096  77.3957 0003070 330.4641  29.6420 15.19134449 76829
SL-3 R/B                
1 19046U 88032B   26243.89451045  .00003679  00000+0  16605-3 0  9999
2 19046  97.5337 226.9165 0024707 346.8063  13.2523 15.21369491 78739
SL-16 R/B               
1 19120U 88039B   26243.86745717  .00000053  00000+0  47680-4 0  9999
2 19120  71.0136  58.1292 0019764  68.9766 291.3471 14.19636498983243
COSMOS 1953             
1 19210U 88050A   26243.73167976  .00006807  00000+0  22654-3 0  9999
2 19210  82.5106 341.8004 0009745 218.0141 142.0413 15.30912666 64542
SL-8 R/B                
1 19257U 88053B   26243.92608612  .00000132  00000+0  51387-4 0  9992
2 19257  74.0483 149.4446 0021187 285.4480 150.0521 14.38990440  1696
COSMOS 1975             
1 19573U 88093A   26243.63905104  .00005914  00000+0  20117-3 0  9990
2 19573  82.5184 301.7653 0009352 271.0368  88.9801 15.30186193 46142
SL-14 R/B               
1 19574U 88093B   26243.51008127  .00000266  00000+0  27657-4 0  9999
2 19574  82.5278 237.9227 0020727 175.0045 303.0762 14.85782504 26971
SL-16 R/B               
1 19650U 88102B   26243.86636266 -.00000239  00000+0 -96758-4 0  9994
2 19650  70.9999 142.9027 0011973 106.3066 253.9375 14.16171921951691
INTERCOSMOS 24          
1 20261U 89080A   26243.78263241  .00000455  00000+0  13426-3 0  9998
2 20261  82.6123 350.4354 1186110 246.3886 100.8431 12.59715148688848
SL-14 R/B               
1 20262U 89080C   26243.84951267  .00000330  00000+0  91348-4 0  9990
2 20262  82.5889  60.6810 1230004 144.3302 224.6692 12.50596478682040
DELTA 1 R/B             
1 20323U 89089B   26243.74293377  .00000165  00000+0  49697-4 0  9993
2 20323  97.0657  63.2217 0067605 289.7350  69.6565 14.50768786921118
ARIANE 40 R/B           
1 20443U 90005H   26243.85559244  .00000123  00000+0  52388-4 0  9991
2 20443  98.2892 299.0936 0010877  43.5980 316.6067 14.39958480918012
DELTA 2 R/B(1)          
1 20453U 90008B   26243.93361201  .00194351  14692-4  69838-3 0  9999
2 20453  35.5942  83.1995 0033334 112.1324 248.2964 15.86757334953662
COSMOS 2058             
1 20465U 90010A   26243.43784681  .00002349  00000+0  13360-3 0  9998
2 20465  82.4656 235.1184 0011153  92.2346 268.0162 15.12367954968642
SL-14 R/B               
1 20466U 90010B   26243.90548293  .00000240  00000+0  26035-4 0  9990
2 20466  82.5001 102.8357 0021341  82.8976 277.4664 14.83686301954467
SL-14 R/B               
1 20511U 90018B   26243.95690988  .00000252  00000+0  28615-4 0  9992
2 20511  82.5185  59.2671 0014927 232.1339 127.8526 14.82256479948545
HST                     
1 20580U 90037B   26243.49007382  .00005211  00000+0  15889-3 0  9996
2 20580  28.4726 285.6052 0001552 253.0342 107.0084 15.31519458800129
SL-16 R/B               
1 20625U 90046B   26243.58764726  .00000176  00000+0  11512-3 0  9992
2 20625  70.9990 290.5906 0013000  30.5704 329.6173 14.15033604873135
COSMOS 2084             
1 20663U 90055A   26243.87650058  .00001398  00000+0  10812-3 0  9997
2 20663  62.7881  97.6973 0014836 344.5051  15.5593 15.06379854962706
SL-6 R/B(2)             
1 20666U 90055D   26243.77210127  .00001182  00000+0  96926-4 0  9990
2 20666  62.7824  18.1140 0052380  15.0304 345.2337 15.04244996964524
SL-8 R/B                
1 20775U 90078B   26243.62971588  .00015161  00000+0  41660-3 0  9991
2 20775  82.8975  93.3272 0342486 142.2982 220.2790 14.94536385835380
SL-8 R/B                
1 21088U 91006B   26243.83244418  .00000128  00000+0  11309-3 0  9993
2 21088  82.9413  39.7371 0021076 264.0468 207.1417 13.77519816788186
OKEAN-3                 
1 21397U 91039A   26243.84352749  .00001597  00000+0  10847-3 0  9997
2 21397  82.5182 167.0070 0016349  92.3716 267.9383 15.05617564891389
COSMOS 2151             
1 21422U 91042A   26243.88027455  .00000853  00000+0  65298-4 0  9992
2 21422  82.4936 274.6284 0012254 179.1632 180.9615 15.00611478889469
SL-14 R/B               
1 21423U 91042B   26243.91213070  .00000233  00000+0  26395-4 0  9994
2 21423  82.4902  55.8637 0017724  29.8775 330.3447 14.81939767879027
ERS-1                   
1 21574U 91050A   26243.99654651  .00000193  00000+0  76366-4 0  9990
2 21574  98.7788 266.5433 0032664  43.6540 316.7223 14.39557960840959
ARIANE 40 R/B           
1 21610U 91050F   26243.70081559  .00000182  00000+0  66931-4 0  9996
2 21610  98.1815 289.1541 0001788 255.3577 104.7415 14.42994638844235
INTERCOSMOS 25          
1 21819U 91086A   26243.88389407  .00000758  00000+0  14066-3 0  9998
2 21819  82.6043 204.0148 1485652  99.1013 278.0590 12.12302831517916
SL-8 R/B                
1 21876U 92008B   26243.82476376  .00000067  00000+0  52902-4 0  9997
2 21876  82.9287 137.5618 0035039   7.7529  59.9405 13.75990063733506
SL-8 R/B                
1 21938U 92020B   26243.93193240  .00000100  00000+0  87942-4 0  9998
2 21938  82.9318  23.5786 0029428 166.0870 309.4130 13.75558028725222
USA 81                  
1 21949U 92023A   26243.85885488  .00000119  00000+0  36750-4 0  9997
2 21949  85.0079  30.3125 0001888 115.1850 244.9538 14.32414716119869
COSMOS 2219             
1 22219U 92076A   26243.73795893  .00000075  00000+0  64062-4 0  9991
2 22219  71.0633  12.1291 0020232 290.8442  69.0513 14.14114571743122
SL-16 R/B               
1 22220U 92076B   26243.92404431 -.00000011  00000+0  18575-4 0  9998
2 22220  71.0005 179.2369 0013291 197.8201 225.2254 14.16881570746655
COSMOS 2221             
1 22236U 92080A   26243.88980040  .00000955  00000+0  81189-4 0  9997
2 22236  82.5023 111.2315 0013448 329.2811  30.7623 14.96717033806991
SL-16 R/B               
1 22285U 92093B   26243.71721952  .00000242  00000+0  14804-3 0  9990
2 22285  71.0239 356.8269 0003319  11.9678 348.1523 14.15468659737923
COSMOS 2228             
1 22286U 92094A   26243.91815200  .00001256  00000+0  10434-3 0  9995
2 22286  82.5147  69.4793 0019181  73.0148 287.3175 14.97792173802283
SL-16 R/B               
1 22566U 93016B   26243.91732002 -.00000045  00000+0  14504-5 0  9999
2 22566  71.0069 207.1458 0008488  46.8588 313.3243 14.15320630726964
COSMOS 2242             
1 22626U 93024A   26243.84563532  .00001044  00000+0  87919-4 0  9995
2 22626  82.5162  99.1484 0017672  76.7157 283.6035 14.97098283806591
SL-16 R/B               
1 22803U 93059B   26243.72832708  .00000221  00000+0  13295-3 0  9992
2 22803  70.9925   1.9948 0019035 299.8968  60.0264 14.17255125704337
ARIANE 40 R/B           
1 22830U 93061H   26243.75886867  .00000105  00000+0  54141-4 0  9990
2 22830  98.4755 309.0228 0011781 122.9336 237.2984 14.32933423719177
COSMOS 2278             
1 23087U 94023A   26243.92013457 -.00000047  00000+0  18474-7 0  9998
2 23087  71.0531 168.4723 0007114 130.2629 229.9117 14.14399452669583
SL-16 R/B               
1 23088U 94023B   26243.88808503  .00000227  00000+0  14160-3 0  9991
2 23088  70.9990  62.9496 0002900 352.3925   7.7153 14.15032696670871
SL-16 R/B               
1 23343U 94074B   26243.70206101  .00000276  00000+0  43444-4 0  9990
2 23343  97.6972 267.2686 0007041  23.5929  99.3821 14.79556870713124
SL-16 R/B               
1 23405U 94077B   26243.73075954  .00000048  00000+0  49043-4 0  9993
2 23405  70.9858 344.2276 0004890 265.1347  94.9217 14.15583209641001
ARIANE 40+ R/B          
1 23561U 95021B   26243.81004314  .00000150  00000+0  61622-4 0  9998
2 23561  98.4352 312.7710 0006258 347.4895 123.5072 14.39867362644443
SL-16 R/B               
1 23705U 95058B   26243.88747659 -.00000112  00000+0 -32758-4 0  9999
2 23705  71.0223 172.4225 0013907 220.8803 139.1279 14.15517917592649
SL-16 R/B               
1 24298U 96051B   26243.87844315  .00000151  00000+0  10822-3 0  9995
2 24298  70.7686 164.4752 0019285 238.9261 120.9966 14.12474486546386
ORBVIEW 2 (SEASTAR)     
1 24883U 97037A   26243.92149712  .00000143  00000+0  65920-4 0  9996
2 24883  98.8768  53.0753 0001106 259.5956 100.5104 14.35585896533618
SL-16 R/B               
1 25400U 98043G   26243.85740978  .00000019  00000+0  26791-4 0  9998
2 25400  98.8436 198.6921 0009020 222.4691 137.5792 14.26079023463959
SL-16 R/B               
1 25407U 98045B   26243.88306768 -.00000195  00000+0 -74495-4 0  9996
2 25407  71.0119 173.1386 0005455 128.9016 231.2595 14.16211938451906
ISS (ZARYA)             
1 25544U 98067A   26243.85334329  .00004554  00000+0  90917-4 0  9991
2 25544  51.6312 285.5874 0005057  94.2999 265.8567 15.48953200583482
CZ-4B R/B               
1 25732U 99025C   26243.70384969  .00000005  00000+0  22892-4 0  9998
2 25732  98.6430 283.6221 0036735 199.6270 270.8179 14.18293692412975
OKEAN-O                 
1 25860U 99039A   26243.77309321  .00000375  00000+0  55681-4 0  9993
2 25860  97.9245 301.6780 0001902 101.4461 258.6965 14.80540827460294
SL-16 R/B               
1 25861U 99039B   26243.72489830  .00000334  00000+0  48964-4 0  9994
2 25861  97.9768 302.3460 0015857  52.7904 307.4754 14.81909591462785
DELTA 2 R/B             
1 25876U 99041E   26243.90586448  .00000649  00000+0  14336-3 0  9990
2 25876  51.7629 321.2154 0500980 145.5982 217.8482 14.12228517387782
HELIOS 1B               
1 25977U 99064A   26243.75750341  .00001031  00000+0  11826-3 0  9992
2 25977  98.1526 151.0591 0001175 131.7748 228.3568 14.88173928711295
TERRA                   
1 25994U 99068A   26243.90642567  .00000220  00000+0  53746-4 0  9999
2 25994  97.9391 290.4267 0002422  26.4622  96.6144 14.61152721420669
SL-16 R/B               
1 26070U 00006B   26243.87310692 -.00000111  00000+0 -32269-4 0  9994
2 26070  71.0013  89.4833 0018857 274.5345  85.3624 14.15847103373356
TITAN 4B R/B            
1 26474U 00047B   26243.88467539  .00001716  00000+0  10995-3 0  9992
2 26474  67.9869 267.4397 0043283 210.3837 149.4804 15.10553018419364
ENVISAT                 
1 27386U 02009A   26243.89839596  .00000051  00000+0  30279-4 0  9991
2 27386  98.3895 193.5492 0001166  88.3740 338.9536 14.39079630284370
IDEFIX & ARIANE 42P R/B 
1 27422U 02021B   26243.84906179  .00000142  00000+0  70325-4 0  9990
2 27422  98.5961 180.5185 0012623  36.3817 323.8222 14.31111379269074
AQUA                    
1 27424U 02022A   26243.93925926  .00000533  00000+0  11576-3 0  9990
2 27424  98.4363 214.7670 0001776  78.1670 310.5038 14.62185871294346
CZ-4B R/B               
1 27432U 02024C   26243.79274280  .00000008  00000+0  27053-4 0  9990
2 27432  98.8633 296.0982 0049151 244.9505 228.3048 14.14573581253996
MIDORI II (ADEOS-II)    
1 27597U 02056A   26243.87885270  .00000154  00000+0  78248-4 0  9997
2 27597  98.7957 203.8096 0001012 138.3209 221.8049 14.29382976235327
H-2A R/B                
1 27601U 02056E   26243.86456273  .00000185  00000+0  79387-4 0  9998
2 27601  98.3385 197.8044 0070281   0.8636  52.4343 14.33855845239212
CZ-4B R/B               
1 28059U 03049C   26243.87054347  .00000228  00000+0  63738-4 0  9997
2 28059  98.6949 245.7479 0049111  57.8898 302.7051 14.55142791212079
CZ-2C R/B               
1 28222U 04012C   26243.96467925  .00455708  10098-3  61564-3 0  9993
2 28222  97.7085 329.6877 0006134 282.1604  77.8990 16.06416520231932
SL-16 R/B               
1 28353U 04021B   26243.39862937 -.00000032  00000+0  82913-5 0  9995
2 28353  70.9992 225.8438 0003558 159.5164 200.6102 14.14622581147549
CZ-4B R/B               
1 28415U 04035C   26243.81301038  .00005836  00000+0  19093-3 0  9999
2 28415  97.3323 276.0667 0031839  67.3068 293.1534 15.31589790206695
CZ-2C R/B               
1 28480U 04046B   26243.77639082  .00000107  00000+0  55106-4 0  9993
2 28480  98.1854 147.7986 0139396 357.5703   2.4786 14.27047699133476
ARIANE 5 R/B            
1 28499U 04049H   26243.50455296  .00000678  00000+0  80561-4 0  9996
2 28499  98.2784  58.7041 0084512 143.8046 216.8928 14.85540057171748
CZ-2D R/B               
1 28738U 05024B   26243.61734261  .00083892  00000+0  46783-3 0  9996
2 28738  97.3438 267.3092 0005288 100.3815 259.8048 15.79166084167203
ALOS (DAICHI)           
1 28931U 06002A   26243.84405528  .00000973  00000+0  16989-3 0  9998
2 28931  98.1393 199.2072 0002171  88.8459 271.2996 14.70190171 99219
H-2A R/B                
1 28932U 06002B   26243.50177263  .00005023  00000+0  23617-3 0  9991
2 28932  98.2654  46.2426 0049711   7.1624 353.0307 15.19024573120951
RESURS-DK 1             
1 29228U 06021A   26243.91530435  .00001417  00000+0  85070-4 0  9995
2 29228  69.9313 143.4849 0005576 224.5726 135.4993 15.13470632114035
CZ-4B R/B               
1 29507U 06046C   26243.66066059  .00003499  00000+0  17164-3 0  9990
2 29507  97.5388 288.0341 0032779  23.0866 337.1832 15.18315154 86582
CZ-2C R/B               
1 31114U 07010B   26243.86258468  .00000063  00000+0  47550-4 0  9995
2 31114  98.4138 348.5279 0059721 144.1238 216.3973 14.20291759  4577
COSMO-SKYMED 1          
1 31598U 07023A   26243.98714440  .00001207  00000+0  10905-3 0  9999
2 31598  97.8839  76.4987 0001198  77.1629 282.9726 14.97396952 41134
COSMOS 2428             
1 31792U 07029A   26243.89443148  .00000197  00000+0  13124-3 0  9998
2 31792  70.9424 195.5323 0009542 351.4383   8.6574 14.12971973988846
SL-16 R/B               
1 31793U 07029B   26243.89992307  .00000326  00000+0  19373-3 0  9991
2 31793  70.9763 164.0706 0001671 271.0742 152.5380 14.14860439990157
KORONAS-FOTON           
1 33504U 09003A   26243.91145596  .00008460  00000+0  16528-3 0  9996
2 33504  82.4263  93.1696 0008338 237.2860 122.7586 15.47240915972801
CZ-2C R/B               
1 37731U 11030B   26243.88694039  .00000653  00000+0  87942-4 0  9997
2 37731  97.8724 197.9407 0053055 138.7939 284.3952 14.81600544816039
H-2A R/B                
1 38341U 12025E   26243.94516151  .00001622  00000+0  14797-3 0  9999
2 38341  98.4905 225.3840 0044853  98.8541 261.7760 14.95993752774415
SHIJIAN-16 (SJ-16)      
1 39358U 13057A   26243.97616008  .00000776  00000+0  77804-4 0  9997
2 39358  74.9711 213.1209 0014989  43.0589 317.1769 14.92749806697654
SL-4 R/B                
1 39679U 14021B   26243.92121225  .00012627  00000+0  24864-3 0  9997
2 39679  51.6044 199.3579 0088399  24.5725 335.9434 15.43463719683305
ALOS-2                  
1 39766U 14029A   26243.95559488  .00001095  00000+0  15342-3 0  9999
2 39766  97.9231 340.0353 0001574  94.9385 265.2006 14.79477511662783
YAOGAN-29               
1 41038U 15069A   26244.01055515 -.00000187  00000+0 -16260-4 0  9993
2 41038  98.0000 272.7525 0002712 111.2506 248.8997 14.83135423581862
ASTRO-H (HITOMI)        
1 41337U 16012A   26243.88673952  .00001968  00000+0  10986-3 0  9993
2 41337  30.9997 305.1805 0009552 294.7317  65.2327 15.10812663578742
HXMT (HUIYAN)           
1 42758U 17034A   26243.96310970  .00003195  00000+0  15914-3 0  9993
2 42758  43.0138 120.9170 0032816 266.3805  93.3291 15.19032263509189
SAOCOM 1A               
1 43641U 18076A   26243.95037655  .00001002  00000+0  13242-3 0  9994
2 43641  97.8894  69.6073 0001523  86.8219 273.3168 14.82160797427324
H-2A R/B                
1 43682U 18084L   26243.70010406  .00019135  00000+0  36613-3 0  9999
2 43682  98.8435 139.2212 0022621 129.6108 230.7139 15.47863037432796
SAOCOM 1B               
1 46265U 20059A   26243.98163902  .00000058  00000+0  13826-4 0  9990
2 46265  97.8900  68.7376 0001455  84.7729 275.3651 14.82158369324710
CSS (TIANHE)            
1 48274U 21035A   26243.94583467  .00015195  00000+0  19011-3 0  9994
2 48274  41.4680 222.1046 0002015 254.3012 105.7604 15.59476669304998
COSMOS 2550             
1 48865U 21056A   26243.99090416  .00003793  00000+0  12105-3 0  9993
2 48865  67.1415 230.5981 0008361 269.1104  90.9093 15.33834658290340
CZ-2C R/B               
1 52794U 22058K   26243.73291435  .00040790  00000+0  36531-3 0  9995
2 52794  50.1839 128.8268 0029666 225.0169 134.8402 15.67294942237478
CZ-2C R/B               
1 54039U 22132E   26243.56576899  .00086290  00000+0  42312-3 0  9992
2 54039  97.2876 254.5072 0013348 140.2139 220.0111 15.81869420217827
GSLV R/B                
1 54149U 22138AN  26243.69892090  .00001655  00000+0  13900-3 0  9991
2 54149  87.3759 107.6095 0019079 230.7965 129.1573 14.97544676210116
XRISM                   
1 57800U 23137A   26241.69559178  .00003835  00000+0  20645-3 0  9999
2 57800  31.0016 243.2413 0007443 344.7862  15.2552 15.12995188164004
ACS3                    
1 59588U 24077B   26243.76408871  .00021944  00000+0  14982-1 0  9997
2 59588  97.2041 145.9929 0102228 341.4408  18.3042 13.97213847118584
SPACEMOBILE-003         
1 61045U 24163A   26243.40262061 -.00000927  00000+0 -27034-4 0  9999
2 61045  52.9735 323.5926 0004459   7.0607 353.0449 15.20622687109211
SPACEMOBILE-005         
1 61046U 24163B   26243.58432411  .00003322  00000+0  16436-3 0  9990
2 61046  52.9822 322.7405 0008088 351.1558   8.9293 15.20580629109236
SPACEMOBILE-001         
1 61047U 24163C   26242.92606577  .00000198  00000+0  23688-4 0  9990
2 61047  52.9781 325.4597 0006180   0.5250 359.5749 15.20585046109136
SPACEMOBILE-002         
1 61048U 24163D   26242.64931576  .00019673  00000+0  89725-3 0  9991
2 61048  52.9782 326.8144 0006029 356.2254   3.8694 15.20638348109095
SPACEMOBILE-004         
1 61049U 24163E   26243.41910894  .00011347  00000+0  52524-3 0  9995
2 61049  52.9697 323.0236 0006998  25.2281 334.9054 15.20573439109211
CZ-8A R/B               
1 66004U 25231K   26243.79606608  .00000011  00000+0  63034-4 0  9999
2 66004  50.0032  77.6288 0116720 130.3615 230.7562 14.30176724 45764
SZ-21 MODULE            
1 66515U 25246C   26243.56913925  .00059543  00000+0  26187-3 0  9991
2 66515  41.4706 195.4668 0010451 207.3280 152.7018 15.83554848 45665
SPACEMOBILE-006         
1 67232U 25309A   26243.72306192  .00000964  00000+0  60938-4 0  9994
2 67232  52.9972 345.5712 0010862  13.4423 346.6858 15.18850266 38077
SPACEMOBILE-008         
1 69589U 26139A   26243.38754912  .00001153  00000+0  81544-4 0  9999
2 69589  52.9947 281.1268 0003748 173.9727 186.1310 15.12935556 11364
SPACEMOBILE-009         
1 69590U 26139B   26243.78913168  .00000959  00000+0  70872-4 0  9990
2 69590  52.9940 279.3493 0004102 172.5276 187.5777 15.12830816 11429
SPACEMOBILE-010         
1 69591U 26139C   26243.79718314  .00001058  00000+0  76732-4 0  9990
2 69591  52.9943 279.4035 0004374 163.3220 196.7916 15.12685888 11439
